<?xml version="1.0" encoding="UTF-8"?>
<gpx version="1.1" creator="ghost-commute make-samples" xmlns="http://www.topografix.com/GPX/1/1">
  <metadata><name>bike-commute (synthetic)</name></metadata>
  <trk><name>bike-commute</name><trkseg>
    <trkpt lat="44.090502" lon="-121.355999"><time>2026-10-06T15:02:11.000Z</time></trkpt>
    <trkpt lat="44.090339" lon="-121.355718"><time>2026-10-06T15:02:16.000Z</time></trkpt>
    <trkpt lat="44.090172" lon="-121.355469"><time>2026-10-06T15:02:21.000Z</time></trkpt>
    <trkpt lat="44.090019" lon="-121.355228"><time>2026-10-06T15:02:26.000Z</time></trkpt>
    <trkpt lat="44.089856" lon="-121.354925"><time>2026-10-06T15:02:31.000Z</time></trkpt>
    <trkpt lat="44.089683" lon="-121.354679"><time>2026-10-06T15:02:36.000Z</time></trkpt>
    <trkpt lat="44.089522" lon="-121.354361"><time>2026-10-06T15:02:41.000Z</time></trkpt>
    <trkpt lat="44.089337" lon="-121.354086"><time>2026-10-06T15:02:46.000Z</time></trkpt>
    <trkpt lat="44.089195" lon="-121.353824"><time>2026-10-06T15:02:51.000Z</time></trkpt>
    <trkpt lat="44.088992" lon="-121.353540"><time>2026-10-06T15:02:56.000Z</time></trkpt>
    <trkpt lat="44.088809" lon="-121.353243"><time>2026-10-06T15:03:01.000Z</time></trkpt>
    <trkpt lat="44.088651" lon="-121.352948"><time>2026-10-06T15:03:06.000Z</time></trkpt>
    <trkpt lat="44.088447" lon="-121.352640"><time>2026-10-06T15:03:11.000Z</time></trkpt>
    <trkpt lat="44.088281" lon="-121.352332"><time>2026-10-06T15:03:16.000Z</time></trkpt>
    <trkpt lat="44.088090" lon="-121.352022"><time>2026-10-06T15:03:21.000Z</time></trkpt>
    <trkpt lat="44.087880" lon="-121.351676"><time>2026-10-06T15:03:26.000Z</time></trkpt>
    <trkpt lat="44.087715" lon="-121.351402"><time>2026-10-06T15:03:31.000Z</time></trkpt>
    <trkpt lat="44.087529" lon="-121.351122"><time>2026-10-06T15:03:36.000Z</time></trkpt>
    <trkpt lat="44.087361" lon="-121.350817"><time>2026-10-06T15:03:41.000Z</time></trkpt>
    <trkpt lat="44.087163" lon="-121.350492"><time>2026-10-06T15:03:46.000Z</time></trkpt>
    <trkpt lat="44.086971" lon="-121.350169"><time>2026-10-06T15:03:51.000Z</time></trkpt>
    <trkpt lat="44.086749" lon="-121.349850"><time>2026-10-06T15:03:56.000Z</time></trkpt>
    <trkpt lat="44.086589" lon="-121.349525"><time>2026-10-06T15:04:01.000Z</time></trkpt>
    <trkpt lat="44.086397" lon="-121.349234"><time>2026-10-06T15:04:06.000Z</time></trkpt>
    <trkpt lat="44.086177" lon="-121.348916"><time>2026-10-06T15:04:11.000Z</time></trkpt>
    <trkpt lat="44.085997" lon="-121.348589"><time>2026-10-06T15:04:16.000Z</time></trkpt>
    <trkpt lat="44.085782" lon="-121.348237"><time>2026-10-06T15:04:21.000Z</time></trkpt>
    <trkpt lat="44.085592" lon="-121.347912"><time>2026-10-06T15:04:26.000Z</time></trkpt>
    <trkpt lat="44.085410" lon="-121.347605"><time>2026-10-06T15:04:31.000Z</time></trkpt>
    <trkpt lat="44.085180" lon="-121.347248"><time>2026-10-06T15:04:36.000Z</time></trkpt>
    <trkpt lat="44.084995" lon="-121.346916"><time>2026-10-06T15:04:41.000Z</time></trkpt>
    <trkpt lat="44.084784" lon="-121.346597"><time>2026-10-06T15:04:46.000Z</time></trkpt>
    <trkpt lat="44.084596" lon="-121.346283"><time>2026-10-06T15:04:51.000Z</time></trkpt>
    <trkpt lat="44.084422" lon="-121.345955"><time>2026-10-06T15:04:56.000Z</time></trkpt>
    <trkpt lat="44.084192" lon="-121.345617"><time>2026-10-06T15:05:01.000Z</time></trkpt>
    <trkpt lat="44.084005" lon="-121.345310"><time>2026-10-06T15:05:06.000Z</time></trkpt>
    <trkpt lat="44.083827" lon="-121.344988"><time>2026-10-06T15:05:11.000Z</time></trkpt>
    <trkpt lat="44.083630" lon="-121.344666"><time>2026-10-06T15:05:16.000Z</time></trkpt>
    <trkpt lat="44.083408" lon="-121.344339"><time>2026-10-06T15:05:21.000Z</time></trkpt>
    <trkpt lat="44.083207" lon="-121.343997"><time>2026-10-06T15:05:26.000Z</time></trkpt>
    <trkpt lat="44.083038" lon="-121.343699"><time>2026-10-06T15:05:31.000Z</time></trkpt>
    <trkpt lat="44.082842" lon="-121.343406"><time>2026-10-06T15:05:36.000Z</time></trkpt>
    <trkpt lat="44.082679" lon="-121.343111"><time>2026-10-06T15:05:41.000Z</time></trkpt>
    <trkpt lat="44.082476" lon="-121.342760"><time>2026-10-06T15:05:46.000Z</time></trkpt>
    <trkpt lat="44.082274" lon="-121.342451"><time>2026-10-06T15:05:51.000Z</time></trkpt>
    <trkpt lat="44.082080" lon="-121.342154"><time>2026-10-06T15:05:56.000Z</time></trkpt>
    <trkpt lat="44.081885" lon="-121.341903"><time>2026-10-06T15:06:01.000Z</time></trkpt>
    <trkpt lat="44.081630" lon="-121.341723"><time>2026-10-06T15:06:06.000Z</time></trkpt>
    <trkpt lat="44.081412" lon="-121.341543"><time>2026-10-06T15:06:11.000Z</time></trkpt>
    <trkpt lat="44.081164" lon="-121.341381"><time>2026-10-06T15:06:16.000Z</time></trkpt>
    <trkpt lat="44.080934" lon="-121.341205"><time>2026-10-06T15:06:21.000Z</time></trkpt>
    <trkpt lat="44.080699" lon="-121.341024"><time>2026-10-06T15:06:26.000Z</time></trkpt>
    <trkpt lat="44.080469" lon="-121.340867"><time>2026-10-06T15:06:31.000Z</time></trkpt>
    <trkpt lat="44.080246" lon="-121.340682"><time>2026-10-06T15:06:36.000Z</time></trkpt>
    <trkpt lat="44.080029" lon="-121.340541"><time>2026-10-06T15:06:41.000Z</time></trkpt>
    <trkpt lat="44.079818" lon="-121.340364"><time>2026-10-06T15:06:46.000Z</time></trkpt>
    <trkpt lat="44.079649" lon="-121.340242"><time>2026-10-06T15:06:51.000Z</time></trkpt>
    <trkpt lat="44.079409" lon="-121.340055"><time>2026-10-06T15:06:56.000Z</time></trkpt>
    <trkpt lat="44.079216" lon="-121.339913"><time>2026-10-06T15:07:01.000Z</time></trkpt>
    <trkpt lat="44.079025" lon="-121.339757"><time>2026-10-06T15:07:06.000Z</time></trkpt>
    <trkpt lat="44.078809" lon="-121.339614"><time>2026-10-06T15:07:11.000Z</time></trkpt>
    <trkpt lat="44.078619" lon="-121.339445"><time>2026-10-06T15:07:16.000Z</time></trkpt>
    <trkpt lat="44.078409" lon="-121.339330"><time>2026-10-06T15:07:21.000Z</time></trkpt>
    <trkpt lat="44.078218" lon="-121.339160"><time>2026-10-06T15:07:26.000Z</time></trkpt>
    <trkpt lat="44.078022" lon="-121.338999"><time>2026-10-06T15:07:31.000Z</time></trkpt>
    <trkpt lat="44.077801" lon="-121.338864"><time>2026-10-06T15:07:36.000Z</time></trkpt>
    <trkpt lat="44.077626" lon="-121.338730"><time>2026-10-06T15:07:41.000Z</time></trkpt>
    <trkpt lat="44.077459" lon="-121.338582"><time>2026-10-06T15:07:46.000Z</time></trkpt>
    <trkpt lat="44.077280" lon="-121.338471"><time>2026-10-06T15:07:51.000Z</time></trkpt>
    <trkpt lat="44.077093" lon="-121.338324"><time>2026-10-06T15:07:56.000Z</time></trkpt>
    <trkpt lat="44.076930" lon="-121.338219"><time>2026-10-06T15:08:01.000Z</time></trkpt>
    <trkpt lat="44.076795" lon="-121.338105"><time>2026-10-06T15:08:06.000Z</time></trkpt>
    <trkpt lat="44.076648" lon="-121.337993"><time>2026-10-06T15:08:11.000Z</time></trkpt>
    <trkpt lat="44.076483" lon="-121.337884"><time>2026-10-06T15:08:16.000Z</time></trkpt>
    <trkpt lat="44.076334" lon="-121.337749"><time>2026-10-06T15:08:21.000Z</time></trkpt>
    <trkpt lat="44.076182" lon="-121.337636"><time>2026-10-06T15:08:26.000Z</time></trkpt>
    <trkpt lat="44.076029" lon="-121.337509"><time>2026-10-06T15:08:31.000Z</time></trkpt>
    <trkpt lat="44.075857" lon="-121.337418"><time>2026-10-06T15:08:36.000Z</time></trkpt>
    <trkpt lat="44.075739" lon="-121.337307"><time>2026-10-06T15:08:41.000Z</time></trkpt>
    <trkpt lat="44.075617" lon="-121.337202"><time>2026-10-06T15:08:46.000Z</time></trkpt>
    <trkpt lat="44.075456" lon="-121.337108"><time>2026-10-06T15:08:51.000Z</time></trkpt>
    <trkpt lat="44.075333" lon="-121.337005"><time>2026-10-06T15:08:56.000Z</time></trkpt>
    <trkpt lat="44.075186" lon="-121.336884"><time>2026-10-06T15:09:01.000Z</time></trkpt>
    <trkpt lat="44.075004" lon="-121.336756"><time>2026-10-06T15:09:06.000Z</time></trkpt>
    <trkpt lat="44.074904" lon="-121.336667"><time>2026-10-06T15:09:11.000Z</time></trkpt>
    <trkpt lat="44.074730" lon="-121.336550"><time>2026-10-06T15:09:16.000Z</time></trkpt>
    <trkpt lat="44.074598" lon="-121.336451"><time>2026-10-06T15:09:21.000Z</time></trkpt>
    <trkpt lat="44.074461" lon="-121.336351"><time>2026-10-06T15:09:26.000Z</time></trkpt>
    <trkpt lat="44.074314" lon="-121.336239"><time>2026-10-06T15:09:31.000Z</time></trkpt>
    <trkpt lat="44.074186" lon="-121.336143"><time>2026-10-06T15:09:36.000Z</time></trkpt>
    <trkpt lat="44.074044" lon="-121.336040"><time>2026-10-06T15:09:41.000Z</time></trkpt>
    <trkpt lat="44.073897" lon="-121.335927"><time>2026-10-06T15:09:46.000Z</time></trkpt>
    <trkpt lat="44.073761" lon="-121.335827"><time>2026-10-06T15:09:51.000Z</time></trkpt>
    <trkpt lat="44.073598" lon="-121.335684"><time>2026-10-06T15:09:56.000Z</time></trkpt>
    <trkpt lat="44.073428" lon="-121.335585"><time>2026-10-06T15:10:01.000Z</time></trkpt>
    <trkpt lat="44.073265" lon="-121.335432"><time>2026-10-06T15:10:06.000Z</time></trkpt>
    <trkpt lat="44.073124" lon="-121.335342"><time>2026-10-06T15:10:11.000Z</time></trkpt>
    <trkpt lat="44.072954" lon="-121.335205"><time>2026-10-06T15:10:16.000Z</time></trkpt>
    <trkpt lat="44.072811" lon="-121.335091"><time>2026-10-06T15:10:21.000Z</time></trkpt>
    <trkpt lat="44.072656" lon="-121.334996"><time>2026-10-06T15:10:26.000Z</time></trkpt>
    <trkpt lat="44.072535" lon="-121.334899"><time>2026-10-06T15:10:31.000Z</time></trkpt>
    <trkpt lat="44.072351" lon="-121.334757"><time>2026-10-06T15:10:36.000Z</time></trkpt>
    <trkpt lat="44.072171" lon="-121.334644"><time>2026-10-06T15:10:41.000Z</time></trkpt>
    <trkpt lat="44.072006" lon="-121.334499"><time>2026-10-06T15:10:46.000Z</time></trkpt>
    <trkpt lat="44.071825" lon="-121.334351"><time>2026-10-06T15:10:51.000Z</time></trkpt>
    <trkpt lat="44.071610" lon="-121.334203"><time>2026-10-06T15:10:56.000Z</time></trkpt>
    <trkpt lat="44.071470" lon="-121.334102"><time>2026-10-06T15:11:01.000Z</time></trkpt>
    <trkpt lat="44.071253" lon="-121.333949"><time>2026-10-06T15:11:06.000Z</time></trkpt>
    <trkpt lat="44.071084" lon="-121.333816"><time>2026-10-06T15:11:11.000Z</time></trkpt>
    <trkpt lat="44.070875" lon="-121.333665"><time>2026-10-06T15:11:16.000Z</time></trkpt>
    <trkpt lat="44.070692" lon="-121.333527"><time>2026-10-06T15:11:21.000Z</time></trkpt>
    <trkpt lat="44.070514" lon="-121.333395"><time>2026-10-06T15:11:26.000Z</time></trkpt>
    <trkpt lat="44.070313" lon="-121.333217"><time>2026-10-06T15:11:31.000Z</time></trkpt>
    <trkpt lat="44.070107" lon="-121.333092"><time>2026-10-06T15:11:36.000Z</time></trkpt>
    <trkpt lat="44.069948" lon="-121.332908"><time>2026-10-06T15:11:41.000Z</time></trkpt>
    <trkpt lat="44.069803" lon="-121.332665"><time>2026-10-06T15:11:46.000Z</time></trkpt>
    <trkpt lat="44.069644" lon="-121.332400"><time>2026-10-06T15:11:51.000Z</time></trkpt>
    <trkpt lat="44.069478" lon="-121.332134"><time>2026-10-06T15:11:56.000Z</time></trkpt>
    <trkpt lat="44.069324" lon="-121.331904"><time>2026-10-06T15:12:01.000Z</time></trkpt>
    <trkpt lat="44.069145" lon="-121.331621"><time>2026-10-06T15:12:06.000Z</time></trkpt>
    <trkpt lat="44.068951" lon="-121.331323"><time>2026-10-06T15:12:11.000Z</time></trkpt>
    <trkpt lat="44.068791" lon="-121.331028"><time>2026-10-06T15:12:16.000Z</time></trkpt>
    <trkpt lat="44.068584" lon="-121.330702"><time>2026-10-06T15:12:21.000Z</time></trkpt>
    <trkpt lat="44.068403" lon="-121.330417"><time>2026-10-06T15:12:26.000Z</time></trkpt>
    <trkpt lat="44.068218" lon="-121.330110"><time>2026-10-06T15:12:31.000Z</time></trkpt>
    <trkpt lat="44.068024" lon="-121.329808"><time>2026-10-06T15:12:36.000Z</time></trkpt>
    <trkpt lat="44.067850" lon="-121.329513"><time>2026-10-06T15:12:41.000Z</time></trkpt>
    <trkpt lat="44.067682" lon="-121.329219"><time>2026-10-06T15:12:46.000Z</time></trkpt>
    <trkpt lat="44.067482" lon="-121.328889"><time>2026-10-06T15:12:51.000Z</time></trkpt>
    <trkpt lat="44.067272" lon="-121.328555"><time>2026-10-06T15:12:56.000Z</time></trkpt>
    <trkpt lat="44.067077" lon="-121.328278"><time>2026-10-06T15:13:01.000Z</time></trkpt>
    <trkpt lat="44.066900" lon="-121.327980"><time>2026-10-06T15:13:06.000Z</time></trkpt>
    <trkpt lat="44.066698" lon="-121.327625"><time>2026-10-06T15:13:11.000Z</time></trkpt>
    <trkpt lat="44.066499" lon="-121.327286"><time>2026-10-06T15:13:16.000Z</time></trkpt>
    <trkpt lat="44.066303" lon="-121.326987"><time>2026-10-06T15:13:21.000Z</time></trkpt>
    <trkpt lat="44.066094" lon="-121.326651"><time>2026-10-06T15:13:26.000Z</time></trkpt>
    <trkpt lat="44.065900" lon="-121.326341"><time>2026-10-06T15:13:31.000Z</time></trkpt>
    <trkpt lat="44.065720" lon="-121.326032"><time>2026-10-06T15:13:36.000Z</time></trkpt>
    <trkpt lat="44.065523" lon="-121.325708"><time>2026-10-06T15:13:41.000Z</time></trkpt>
    <trkpt lat="44.065292" lon="-121.325370"><time>2026-10-06T15:13:46.000Z</time></trkpt>
    <trkpt lat="44.065109" lon="-121.325041"><time>2026-10-06T15:13:51.000Z</time></trkpt>
    <trkpt lat="44.064921" lon="-121.324713"><time>2026-10-06T15:13:56.000Z</time></trkpt>
    <trkpt lat="44.064700" lon="-121.324391"><time>2026-10-06T15:14:01.000Z</time></trkpt>
    <trkpt lat="44.064491" lon="-121.324044"><time>2026-10-06T15:14:06.000Z</time></trkpt>
    <trkpt lat="44.064293" lon="-121.323698"><time>2026-10-06T15:14:11.000Z</time></trkpt>
    <trkpt lat="44.064074" lon="-121.323388"><time>2026-10-06T15:14:16.000Z</time></trkpt>
    <trkpt lat="44.063896" lon="-121.323069"><time>2026-10-06T15:14:21.000Z</time></trkpt>
    <trkpt lat="44.063672" lon="-121.322735"><time>2026-10-06T15:14:26.000Z</time></trkpt>
    <trkpt lat="44.063470" lon="-121.322380"><time>2026-10-06T15:14:31.000Z</time></trkpt>
    <trkpt lat="44.063256" lon="-121.322021"><time>2026-10-06T15:14:36.000Z</time></trkpt>
    <trkpt lat="44.063049" lon="-121.321714"><time>2026-10-06T15:14:41.000Z</time></trkpt>
    <trkpt lat="44.062876" lon="-121.321407"><time>2026-10-06T15:14:46.000Z</time></trkpt>
    <trkpt lat="44.062662" lon="-121.321072"><time>2026-10-06T15:14:51.000Z</time></trkpt>
    <trkpt lat="44.062464" lon="-121.320742"><time>2026-10-06T15:14:56.000Z</time></trkpt>
    <trkpt lat="44.062268" lon="-121.320424"><time>2026-10-06T15:15:01.000Z</time></trkpt>
    <trkpt lat="44.062072" lon="-121.320132"><time>2026-10-06T15:15:06.000Z</time></trkpt>
    <trkpt lat="44.061889" lon="-121.319866"><time>2026-10-06T15:15:11.000Z</time></trkpt>
    <trkpt lat="44.061678" lon="-121.319618"><time>2026-10-06T15:15:16.000Z</time></trkpt>
    <trkpt lat="44.061474" lon="-121.319371"><time>2026-10-06T15:15:21.000Z</time></trkpt>
    <trkpt lat="44.061292" lon="-121.319127"><time>2026-10-06T15:15:26.000Z</time></trkpt>
    <trkpt lat="44.061097" lon="-121.318869"><time>2026-10-06T15:15:31.000Z</time></trkpt>
    <trkpt lat="44.060863" lon="-121.318589"><time>2026-10-06T15:15:36.000Z</time></trkpt>
    <trkpt lat="44.060645" lon="-121.318320"><time>2026-10-06T15:15:41.000Z</time></trkpt>
    <trkpt lat="44.060447" lon="-121.318068"><time>2026-10-06T15:15:46.000Z</time></trkpt>
    <trkpt lat="44.060237" lon="-121.317807"><time>2026-10-06T15:15:51.000Z</time></trkpt>
    <trkpt lat="44.060043" lon="-121.317557"><time>2026-10-06T15:15:56.000Z</time></trkpt>
    <trkpt lat="44.059839" lon="-121.317346"><time>2026-10-06T15:16:01.000Z</time></trkpt>
    <trkpt lat="44.059686" lon="-121.317109"><time>2026-10-06T15:16:06.000Z</time></trkpt>
    <trkpt lat="44.059501" lon="-121.316922"><time>2026-10-06T15:16:11.000Z</time></trkpt>
    <trkpt lat="44.059309" lon="-121.316678"><time>2026-10-06T15:16:16.000Z</time></trkpt>
    <trkpt lat="44.059134" lon="-121.316439"><time>2026-10-06T15:16:21.000Z</time></trkpt>
    <trkpt lat="44.058957" lon="-121.316262"><time>2026-10-06T15:16:26.000Z</time></trkpt>
    <trkpt lat="44.058786" lon="-121.316019"><time>2026-10-06T15:16:31.000Z</time></trkpt>
    <trkpt lat="44.058604" lon="-121.315784"><time>2026-10-06T15:16:36.000Z</time></trkpt>
    <trkpt lat="44.058443" lon="-121.315601"><time>2026-10-06T15:16:41.000Z</time></trkpt>
    <trkpt lat="44.058261" lon="-121.315358"><time>2026-10-06T15:16:46.000Z</time></trkpt>
    <trkpt lat="44.058072" lon="-121.315170"><time>2026-10-06T15:16:51.000Z</time></trkpt>
    <trkpt lat="44.057902" lon="-121.314988"><time>2026-10-06T15:16:56.000Z</time></trkpt>
    <trkpt lat="44.057731" lon="-121.314805"><time>2026-10-06T15:17:01.000Z</time></trkpt>
    <trkpt lat="44.057553" lon="-121.314624"><time>2026-10-06T15:17:06.000Z</time></trkpt>
    <trkpt lat="44.057396" lon="-121.314488"><time>2026-10-06T15:17:11.000Z</time></trkpt>
    <trkpt lat="44.057215" lon="-121.314289"><time>2026-10-06T15:17:16.000Z</time></trkpt>
    <trkpt lat="44.057070" lon="-121.314150"><time>2026-10-06T15:17:21.000Z</time></trkpt>
    <trkpt lat="44.056932" lon="-121.314029"><time>2026-10-06T15:17:26.000Z</time></trkpt>
    <trkpt lat="44.056799" lon="-121.313877"><time>2026-10-06T15:17:31.000Z</time></trkpt>
    <trkpt lat="44.056624" lon="-121.313714"><time>2026-10-06T15:17:36.000Z</time></trkpt>
    <trkpt lat="44.056469" lon="-121.313560"><time>2026-10-06T15:17:41.000Z</time></trkpt>
    <trkpt lat="44.056310" lon="-121.313404"><time>2026-10-06T15:17:46.000Z</time></trkpt>
    <trkpt lat="44.056179" lon="-121.313261"><time>2026-10-06T15:17:51.000Z</time></trkpt>
    <trkpt lat="44.056048" lon="-121.313112"><time>2026-10-06T15:17:56.000Z</time></trkpt>
    <trkpt lat="44.055916" lon="-121.312994"><time>2026-10-06T15:18:01.000Z</time></trkpt>
    <trkpt lat="44.055787" lon="-121.312850"><time>2026-10-06T15:18:06.000Z</time></trkpt>
    <trkpt lat="44.055637" lon="-121.312710"><time>2026-10-06T15:18:11.000Z</time></trkpt>
    <trkpt lat="44.055500" lon="-121.312562"><time>2026-10-06T15:18:16.000Z</time></trkpt>
    <trkpt lat="44.055374" lon="-121.312436"><time>2026-10-06T15:18:21.000Z</time></trkpt>
    <trkpt lat="44.055236" lon="-121.312318"><time>2026-10-06T15:18:26.000Z</time></trkpt>
    <trkpt lat="44.055097" lon="-121.312174"><time>2026-10-06T15:18:31.000Z</time></trkpt>
    <trkpt lat="44.054977" lon="-121.312059"><time>2026-10-06T15:18:36.000Z</time></trkpt>
    <trkpt lat="44.054836" lon="-121.311925"><time>2026-10-06T15:18:41.000Z</time></trkpt>
    <trkpt lat="44.054720" lon="-121.311775"><time>2026-10-06T15:18:46.000Z</time></trkpt>
    <trkpt lat="44.054544" lon="-121.311615"><time>2026-10-06T15:18:51.000Z</time></trkpt>
    <trkpt lat="44.054418" lon="-121.311490"><time>2026-10-06T15:18:56.000Z</time></trkpt>
    <trkpt lat="44.054276" lon="-121.311342"><time>2026-10-06T15:19:01.000Z</time></trkpt>
    <trkpt lat="44.054128" lon="-121.311191"><time>2026-10-06T15:19:06.000Z</time></trkpt>
    <trkpt lat="44.053993" lon="-121.311041"><time>2026-10-06T15:19:11.000Z</time></trkpt>
    <trkpt lat="44.053844" lon="-121.310922"><time>2026-10-06T15:19:16.000Z</time></trkpt>
    <trkpt lat="44.053687" lon="-121.310748"><time>2026-10-06T15:19:21.000Z</time></trkpt>
    <trkpt lat="44.053572" lon="-121.310611"><time>2026-10-06T15:19:26.000Z</time></trkpt>
    <trkpt lat="44.053437" lon="-121.310505"><time>2026-10-06T15:19:31.000Z</time></trkpt>
    <trkpt lat="44.053299" lon="-121.310339"><time>2026-10-06T15:19:36.000Z</time></trkpt>
    <trkpt lat="44.053151" lon="-121.310208"><time>2026-10-06T15:19:41.000Z</time></trkpt>
    <trkpt lat="44.053037" lon="-121.310073"><time>2026-10-06T15:19:46.000Z</time></trkpt>
    <trkpt lat="44.052906" lon="-121.309953"><time>2026-10-06T15:19:51.000Z</time></trkpt>
    <trkpt lat="44.052747" lon="-121.309788"><time>2026-10-06T15:19:56.000Z</time></trkpt>
    <trkpt lat="44.052598" lon="-121.309624"><time>2026-10-06T15:20:01.000Z</time></trkpt>
    <trkpt lat="44.052442" lon="-121.309494"><time>2026-10-06T15:20:06.000Z</time></trkpt>
    <trkpt lat="44.052305" lon="-121.309356"><time>2026-10-06T15:20:11.000Z</time></trkpt>
    <trkpt lat="44.052163" lon="-121.309217"><time>2026-10-06T15:20:16.000Z</time></trkpt>
    <trkpt lat="44.052011" lon="-121.309063"><time>2026-10-06T15:20:21.000Z</time></trkpt>
    <trkpt lat="44.051844" lon="-121.308876"><time>2026-10-06T15:20:26.000Z</time></trkpt>
    <trkpt lat="44.051664" lon="-121.308692"><time>2026-10-06T15:20:31.000Z</time></trkpt>
    <trkpt lat="44.051501" lon="-121.308528"><time>2026-10-06T15:20:36.000Z</time></trkpt>
    <trkpt lat="44.051349" lon="-121.308377"><time>2026-10-06T15:20:41.000Z</time></trkpt>
    <trkpt lat="44.051159" lon="-121.308199"><time>2026-10-06T15:20:46.000Z</time></trkpt>
    <trkpt lat="44.050984" lon="-121.308011"><time>2026-10-06T15:20:51.000Z</time></trkpt>
    <trkpt lat="44.050815" lon="-121.307830"><time>2026-10-06T15:20:56.000Z</time></trkpt>
    <trkpt lat="44.050623" lon="-121.307646"><time>2026-10-06T15:21:01.000Z</time></trkpt>
    <trkpt lat="44.050402" lon="-121.307435"><time>2026-10-06T15:21:06.000Z</time></trkpt>
    <trkpt lat="44.050240" lon="-121.307256"><time>2026-10-06T15:21:11.000Z</time></trkpt>
    <trkpt lat="44.050027" lon="-121.307046"><time>2026-10-06T15:21:16.000Z</time></trkpt>
    <trkpt lat="44.049812" lon="-121.306819"><time>2026-10-06T15:21:21.000Z</time></trkpt>
    <trkpt lat="44.049598" lon="-121.306629"><time>2026-10-06T15:21:26.000Z</time></trkpt>
    <trkpt lat="44.049427" lon="-121.306414"><time>2026-10-06T15:21:31.000Z</time></trkpt>
    <trkpt lat="44.049223" lon="-121.306222"><time>2026-10-06T15:21:36.000Z</time></trkpt>
    <trkpt lat="44.048970" lon="-121.305994"><time>2026-10-06T15:21:41.000Z</time></trkpt>
    <trkpt lat="44.048734" lon="-121.305755"><time>2026-10-06T15:21:46.000Z</time></trkpt>
    <trkpt lat="44.048547" lon="-121.305544"><time>2026-10-06T15:21:51.000Z</time></trkpt>
    <trkpt lat="44.048317" lon="-121.305324"><time>2026-10-06T15:21:56.000Z</time></trkpt>
    <trkpt lat="44.048085" lon="-121.305085"><time>2026-10-06T15:22:01.000Z</time></trkpt>
    <trkpt lat="44.047850" lon="-121.304864"><time>2026-10-06T15:22:06.000Z</time></trkpt>
    <trkpt lat="44.047630" lon="-121.304620"><time>2026-10-06T15:22:11.000Z</time></trkpt>
    <trkpt lat="44.047413" lon="-121.304414"><time>2026-10-06T15:22:16.000Z</time></trkpt>
    <trkpt lat="44.047162" lon="-121.304174"><time>2026-10-06T15:22:21.000Z</time></trkpt>
    <trkpt lat="44.046944" lon="-121.303955"><time>2026-10-06T15:22:26.000Z</time></trkpt>
    <trkpt lat="44.046686" lon="-121.303707"><time>2026-10-06T15:22:31.000Z</time></trkpt>
    <trkpt lat="44.046470" lon="-121.303466"><time>2026-10-06T15:22:36.000Z</time></trkpt>
    <trkpt lat="44.046202" lon="-121.303194"><time>2026-10-06T15:22:41.000Z</time></trkpt>
    <trkpt lat="44.045950" lon="-121.302952"><time>2026-10-06T15:22:46.000Z</time></trkpt>
    <trkpt lat="44.045722" lon="-121.302729"><time>2026-10-06T15:22:51.000Z</time></trkpt>
    <trkpt lat="44.045482" lon="-121.302495"><time>2026-10-06T15:22:56.000Z</time></trkpt>
    <trkpt lat="44.045211" lon="-121.302236"><time>2026-10-06T15:23:01.000Z</time></trkpt>
    <trkpt lat="44.045000" lon="-121.301980"><time>2026-10-06T15:23:06.000Z</time></trkpt>
    <trkpt lat="44.044724" lon="-121.301721"><time>2026-10-06T15:23:11.000Z</time></trkpt>
    <trkpt lat="44.044450" lon="-121.301453"><time>2026-10-06T15:23:16.000Z</time></trkpt>
    <trkpt lat="44.044184" lon="-121.301183"><time>2026-10-06T15:23:21.000Z</time></trkpt>
    <trkpt lat="44.043964" lon="-121.300949"><time>2026-10-06T15:23:26.000Z</time></trkpt>
    <trkpt lat="44.043682" lon="-121.300679"><time>2026-10-06T15:23:31.000Z</time></trkpt>
    <trkpt lat="44.043421" lon="-121.300410"><time>2026-10-06T15:23:36.000Z</time></trkpt>
    <trkpt lat="44.043159" lon="-121.300154"><time>2026-10-06T15:23:41.000Z</time></trkpt>
    <trkpt lat="44.042896" lon="-121.299894"><time>2026-10-06T15:23:46.000Z</time></trkpt>
    <trkpt lat="44.042652" lon="-121.299649"><time>2026-10-06T15:23:51.000Z</time></trkpt>
    <trkpt lat="44.042419" lon="-121.299415"><time>2026-10-06T15:23:56.000Z</time></trkpt>
    <trkpt lat="44.042164" lon="-121.299171"><time>2026-10-06T15:24:01.000Z</time></trkpt>
    <trkpt lat="44.041915" lon="-121.298909"><time>2026-10-06T15:24:06.000Z</time></trkpt>
    <trkpt lat="44.041660" lon="-121.298677"><time>2026-10-06T15:24:11.000Z</time></trkpt>
    <trkpt lat="44.041405" lon="-121.298405"><time>2026-10-06T15:24:16.000Z</time></trkpt>
    <trkpt lat="44.041181" lon="-121.298185"><time>2026-10-06T15:24:21.000Z</time></trkpt>
    <trkpt lat="44.040937" lon="-121.297954"><time>2026-10-06T15:24:26.000Z</time></trkpt>
    <trkpt lat="44.040678" lon="-121.297685"><time>2026-10-06T15:24:31.000Z</time></trkpt>
    <trkpt lat="44.040467" lon="-121.297459"><time>2026-10-06T15:24:36.000Z</time></trkpt>
    <trkpt lat="44.040228" lon="-121.297214"><time>2026-10-06T15:24:41.000Z</time></trkpt>
  </trkseg></trk>
</gpx>
