<?xml version="1.0" encoding="UTF-8"?>
<gpx version="1.1" creator="ghost-commute make-samples" xmlns="http://www.topografix.com/GPX/1/1">
  <metadata><name>bus-teleport (synthetic)</name></metadata>
  <trk><name>bus-teleport</name><trkseg>
    <trkpt lat="44.090503" lon="-121.356006"><time>2026-10-06T15:02:11.000Z</time></trkpt>
    <trkpt lat="44.090368" lon="-121.355754"><time>2026-10-06T15:02:16.000Z</time></trkpt>
    <trkpt lat="44.090217" lon="-121.355503"><time>2026-10-06T15:02:21.000Z</time></trkpt>
    <trkpt lat="44.090081" lon="-121.355294"><time>2026-10-06T15:02:26.000Z</time></trkpt>
    <trkpt lat="44.089936" lon="-121.355061"><time>2026-10-06T15:02:31.000Z</time></trkpt>
    <trkpt lat="44.089756" lon="-121.354811"><time>2026-10-06T15:02:36.000Z</time></trkpt>
    <trkpt lat="44.089622" lon="-121.354524"><time>2026-10-06T15:02:41.000Z</time></trkpt>
    <trkpt lat="44.089432" lon="-121.354259"><time>2026-10-06T15:02:46.000Z</time></trkpt>
    <trkpt lat="44.089276" lon="-121.353987"><time>2026-10-06T15:02:51.000Z</time></trkpt>
    <trkpt lat="44.089142" lon="-121.353758"><time>2026-10-06T15:02:56.000Z</time></trkpt>
    <trkpt lat="44.088986" lon="-121.353489"><time>2026-10-06T15:03:01.000Z</time></trkpt>
    <trkpt lat="44.088814" lon="-121.353197"><time>2026-10-06T15:03:06.000Z</time></trkpt>
    <trkpt lat="44.088617" lon="-121.352926"><time>2026-10-06T15:03:11.000Z</time></trkpt>
    <trkpt lat="44.088474" lon="-121.352659"><time>2026-10-06T15:03:16.000Z</time></trkpt>
    <trkpt lat="44.088312" lon="-121.352388"><time>2026-10-06T15:03:21.000Z</time></trkpt>
    <trkpt lat="44.088124" lon="-121.352093"><time>2026-10-06T15:03:26.000Z</time></trkpt>
    <trkpt lat="44.087952" lon="-121.351802"><time>2026-10-06T15:03:31.000Z</time></trkpt>
    <trkpt lat="44.087790" lon="-121.351517"><time>2026-10-06T15:03:36.000Z</time></trkpt>
    <trkpt lat="44.087615" lon="-121.351235"><time>2026-10-06T15:03:41.000Z</time></trkpt>
    <trkpt lat="44.087437" lon="-121.350959"><time>2026-10-06T15:03:46.000Z</time></trkpt>
    <trkpt lat="44.087271" lon="-121.350676"><time>2026-10-06T15:03:51.000Z</time></trkpt>
    <trkpt lat="44.087086" lon="-121.350388"><time>2026-10-06T15:03:56.000Z</time></trkpt>
    <trkpt lat="44.086933" lon="-121.350120"><time>2026-10-06T15:04:01.000Z</time></trkpt>
    <trkpt lat="44.086767" lon="-121.349831"><time>2026-10-06T15:04:06.000Z</time></trkpt>
    <trkpt lat="44.086589" lon="-121.349545"><time>2026-10-06T15:04:11.000Z</time></trkpt>
    <trkpt lat="44.086397" lon="-121.349243"><time>2026-10-06T15:04:16.000Z</time></trkpt>
    <trkpt lat="44.086211" lon="-121.348958"><time>2026-10-06T15:04:21.000Z</time></trkpt>
    <trkpt lat="44.086025" lon="-121.348661"><time>2026-10-06T15:04:26.000Z</time></trkpt>
    <trkpt lat="44.085866" lon="-121.348356"><time>2026-10-06T15:04:31.000Z</time></trkpt>
    <trkpt lat="44.085687" lon="-121.348080"><time>2026-10-06T15:04:36.000Z</time></trkpt>
    <trkpt lat="44.085529" lon="-121.347801"><time>2026-10-06T15:04:41.000Z</time></trkpt>
    <trkpt lat="44.085330" lon="-121.347496"><time>2026-10-06T15:04:46.000Z</time></trkpt>
    <trkpt lat="44.085167" lon="-121.347228"><time>2026-10-06T15:04:51.000Z</time></trkpt>
    <trkpt lat="44.084984" lon="-121.346934"><time>2026-10-06T15:04:56.000Z</time></trkpt>
    <trkpt lat="44.084832" lon="-121.346655"><time>2026-10-06T15:05:01.000Z</time></trkpt>
    <trkpt lat="44.084667" lon="-121.346409"><time>2026-10-06T15:05:06.000Z</time></trkpt>
    <trkpt lat="44.084487" lon="-121.346105"><time>2026-10-06T15:05:11.000Z</time></trkpt>
    <trkpt lat="44.084341" lon="-121.345829"><time>2026-10-06T15:05:16.000Z</time></trkpt>
    <trkpt lat="44.084149" lon="-121.345560"><time>2026-10-06T15:05:21.000Z</time></trkpt>
    <trkpt lat="44.083995" lon="-121.345283"><time>2026-10-06T15:05:26.000Z</time></trkpt>
    <trkpt lat="44.083855" lon="-121.345025"><time>2026-10-06T15:05:31.000Z</time></trkpt>
    <trkpt lat="44.083700" lon="-121.344783"><time>2026-10-06T15:05:36.000Z</time></trkpt>
    <trkpt lat="44.083545" lon="-121.344527"><time>2026-10-06T15:05:41.000Z</time></trkpt>
    <trkpt lat="44.083395" lon="-121.344274"><time>2026-10-06T15:05:46.000Z</time></trkpt>
    <trkpt lat="44.083222" lon="-121.344036"><time>2026-10-06T15:05:51.000Z</time></trkpt>
    <trkpt lat="44.083076" lon="-121.343806"><time>2026-10-06T15:05:56.000Z</time></trkpt>
    <trkpt lat="44.082953" lon="-121.343562"><time>2026-10-06T15:06:01.000Z</time></trkpt>
    <trkpt lat="44.082795" lon="-121.343330"><time>2026-10-06T15:06:06.000Z</time></trkpt>
    <trkpt lat="44.082665" lon="-121.343076"><time>2026-10-06T15:06:11.000Z</time></trkpt>
    <trkpt lat="44.082507" lon="-121.342843"><time>2026-10-06T15:06:16.000Z</time></trkpt>
    <trkpt lat="44.082400" lon="-121.342648"><time>2026-10-06T15:06:21.000Z</time></trkpt>
    <trkpt lat="44.082269" lon="-121.342445"><time>2026-10-06T15:06:26.000Z</time></trkpt>
    <trkpt lat="44.082121" lon="-121.342213"><time>2026-10-06T15:06:31.000Z</time></trkpt>
    <trkpt lat="44.081992" lon="-121.341993"><time>2026-10-06T15:06:36.000Z</time></trkpt>
    <trkpt lat="44.081806" lon="-121.341841"><time>2026-10-06T15:06:41.000Z</time></trkpt>
    <trkpt lat="44.081655" lon="-121.341735"><time>2026-10-06T15:06:46.000Z</time></trkpt>
    <trkpt lat="44.063975" lon="-121.323222"><time>2026-10-06T15:09:16.000Z</time></trkpt>
    <trkpt lat="44.063842" lon="-121.323002"><time>2026-10-06T15:09:21.000Z</time></trkpt>
    <trkpt lat="44.063687" lon="-121.322744"><time>2026-10-06T15:09:26.000Z</time></trkpt>
    <trkpt lat="44.063543" lon="-121.322506"><time>2026-10-06T15:09:31.000Z</time></trkpt>
    <trkpt lat="44.063374" lon="-121.322254"><time>2026-10-06T15:09:36.000Z</time></trkpt>
    <trkpt lat="44.063225" lon="-121.322004"><time>2026-10-06T15:09:41.000Z</time></trkpt>
    <trkpt lat="44.063083" lon="-121.321770"><time>2026-10-06T15:09:46.000Z</time></trkpt>
    <trkpt lat="44.062939" lon="-121.321512"><time>2026-10-06T15:09:51.000Z</time></trkpt>
    <trkpt lat="44.062773" lon="-121.321280"><time>2026-10-06T15:09:56.000Z</time></trkpt>
    <trkpt lat="44.062624" lon="-121.321016"><time>2026-10-06T15:10:01.000Z</time></trkpt>
    <trkpt lat="44.062447" lon="-121.320733"><time>2026-10-06T15:10:06.000Z</time></trkpt>
    <trkpt lat="44.062320" lon="-121.320507"><time>2026-10-06T15:10:11.000Z</time></trkpt>
    <trkpt lat="44.062135" lon="-121.320234"><time>2026-10-06T15:10:16.000Z</time></trkpt>
    <trkpt lat="44.061986" lon="-121.319990"><time>2026-10-06T15:10:21.000Z</time></trkpt>
    <trkpt lat="44.061785" lon="-121.319765"><time>2026-10-06T15:10:26.000Z</time></trkpt>
    <trkpt lat="44.061593" lon="-121.319498"><time>2026-10-06T15:10:31.000Z</time></trkpt>
    <trkpt lat="44.061405" lon="-121.319285"><time>2026-10-06T15:10:36.000Z</time></trkpt>
    <trkpt lat="44.061221" lon="-121.319037"><time>2026-10-06T15:10:41.000Z</time></trkpt>
    <trkpt lat="44.061015" lon="-121.318771"><time>2026-10-06T15:10:46.000Z</time></trkpt>
    <trkpt lat="44.060811" lon="-121.318529"><time>2026-10-06T15:10:51.000Z</time></trkpt>
    <trkpt lat="44.060609" lon="-121.318291"><time>2026-10-06T15:10:56.000Z</time></trkpt>
    <trkpt lat="44.060406" lon="-121.318033"><time>2026-10-06T15:11:01.000Z</time></trkpt>
    <trkpt lat="44.060201" lon="-121.317790"><time>2026-10-06T15:11:06.000Z</time></trkpt>
    <trkpt lat="44.060012" lon="-121.317535"><time>2026-10-06T15:11:11.000Z</time></trkpt>
    <trkpt lat="44.059794" lon="-121.317260"><time>2026-10-06T15:11:16.000Z</time></trkpt>
    <trkpt lat="44.059577" lon="-121.317012"><time>2026-10-06T15:11:21.000Z</time></trkpt>
    <trkpt lat="44.059383" lon="-121.316754"><time>2026-10-06T15:11:26.000Z</time></trkpt>
    <trkpt lat="44.059167" lon="-121.316486"><time>2026-10-06T15:11:31.000Z</time></trkpt>
    <trkpt lat="44.058942" lon="-121.316212"><time>2026-10-06T15:11:36.000Z</time></trkpt>
    <trkpt lat="44.058754" lon="-121.315958"><time>2026-10-06T15:11:41.000Z</time></trkpt>
    <trkpt lat="44.058538" lon="-121.315703"><time>2026-10-06T15:11:46.000Z</time></trkpt>
    <trkpt lat="44.058343" lon="-121.315482"><time>2026-10-06T15:11:51.000Z</time></trkpt>
    <trkpt lat="44.058112" lon="-121.315212"><time>2026-10-06T15:11:56.000Z</time></trkpt>
    <trkpt lat="44.057934" lon="-121.315011"><time>2026-10-06T15:12:01.000Z</time></trkpt>
    <trkpt lat="44.057720" lon="-121.314829"><time>2026-10-06T15:12:06.000Z</time></trkpt>
    <trkpt lat="44.057494" lon="-121.314605"><time>2026-10-06T15:12:11.000Z</time></trkpt>
    <trkpt lat="44.057301" lon="-121.314386"><time>2026-10-06T15:12:16.000Z</time></trkpt>
    <trkpt lat="44.057097" lon="-121.314178"><time>2026-10-06T15:12:21.000Z</time></trkpt>
    <trkpt lat="44.056868" lon="-121.313953"><time>2026-10-06T15:12:26.000Z</time></trkpt>
    <trkpt lat="44.056674" lon="-121.313756"><time>2026-10-06T15:12:31.000Z</time></trkpt>
    <trkpt lat="44.056473" lon="-121.313578"><time>2026-10-06T15:12:36.000Z</time></trkpt>
    <trkpt lat="44.056284" lon="-121.313376"><time>2026-10-06T15:12:41.000Z</time></trkpt>
    <trkpt lat="44.056104" lon="-121.313168"><time>2026-10-06T15:12:46.000Z</time></trkpt>
    <trkpt lat="44.055903" lon="-121.312955"><time>2026-10-06T15:12:51.000Z</time></trkpt>
    <trkpt lat="44.055687" lon="-121.312753"><time>2026-10-06T15:12:56.000Z</time></trkpt>
    <trkpt lat="44.055496" lon="-121.312581"><time>2026-10-06T15:13:01.000Z</time></trkpt>
    <trkpt lat="44.055311" lon="-121.312392"><time>2026-10-06T15:13:06.000Z</time></trkpt>
    <trkpt lat="44.055138" lon="-121.312192"><time>2026-10-06T15:13:11.000Z</time></trkpt>
    <trkpt lat="44.054951" lon="-121.312013"><time>2026-10-06T15:13:16.000Z</time></trkpt>
    <trkpt lat="44.054769" lon="-121.311839"><time>2026-10-06T15:13:21.000Z</time></trkpt>
    <trkpt lat="44.054594" lon="-121.311657"><time>2026-10-06T15:13:26.000Z</time></trkpt>
    <trkpt lat="44.054424" lon="-121.311508"><time>2026-10-06T15:13:31.000Z</time></trkpt>
    <trkpt lat="44.054262" lon="-121.311322"><time>2026-10-06T15:13:36.000Z</time></trkpt>
    <trkpt lat="44.054079" lon="-121.311136"><time>2026-10-06T15:13:41.000Z</time></trkpt>
    <trkpt lat="44.053896" lon="-121.310974"><time>2026-10-06T15:13:46.000Z</time></trkpt>
    <trkpt lat="44.053762" lon="-121.310819"><time>2026-10-06T15:13:51.000Z</time></trkpt>
    <trkpt lat="44.053611" lon="-121.310659"><time>2026-10-06T15:13:56.000Z</time></trkpt>
    <trkpt lat="44.053448" lon="-121.310473"><time>2026-10-06T15:14:01.000Z</time></trkpt>
    <trkpt lat="44.053279" lon="-121.310323"><time>2026-10-06T15:14:06.000Z</time></trkpt>
    <trkpt lat="44.053114" lon="-121.310159"><time>2026-10-06T15:14:11.000Z</time></trkpt>
    <trkpt lat="44.052950" lon="-121.310010"><time>2026-10-06T15:14:16.000Z</time></trkpt>
    <trkpt lat="44.052822" lon="-121.309843"><time>2026-10-06T15:14:21.000Z</time></trkpt>
    <trkpt lat="44.052649" lon="-121.309700"><time>2026-10-06T15:14:26.000Z</time></trkpt>
    <trkpt lat="44.052486" lon="-121.309522"><time>2026-10-06T15:14:31.000Z</time></trkpt>
    <trkpt lat="44.052335" lon="-121.309373"><time>2026-10-06T15:14:36.000Z</time></trkpt>
    <trkpt lat="44.052189" lon="-121.309233"><time>2026-10-06T15:14:41.000Z</time></trkpt>
    <trkpt lat="44.052056" lon="-121.309114"><time>2026-10-06T15:14:46.000Z</time></trkpt>
    <trkpt lat="44.051931" lon="-121.308971"><time>2026-10-06T15:14:51.000Z</time></trkpt>
    <trkpt lat="44.051781" lon="-121.308813"><time>2026-10-06T15:14:56.000Z</time></trkpt>
    <trkpt lat="44.051646" lon="-121.308686"><time>2026-10-06T15:15:01.000Z</time></trkpt>
    <trkpt lat="44.051520" lon="-121.308556"><time>2026-10-06T15:15:06.000Z</time></trkpt>
    <trkpt lat="44.051373" lon="-121.308407"><time>2026-10-06T15:15:11.000Z</time></trkpt>
    <trkpt lat="44.051252" lon="-121.308263"><time>2026-10-06T15:15:16.000Z</time></trkpt>
    <trkpt lat="44.051077" lon="-121.308103"><time>2026-10-06T15:15:21.000Z</time></trkpt>
    <trkpt lat="44.050951" lon="-121.307987"><time>2026-10-06T15:15:26.000Z</time></trkpt>
    <trkpt lat="44.050793" lon="-121.307845"><time>2026-10-06T15:15:31.000Z</time></trkpt>
    <trkpt lat="44.050652" lon="-121.307674"><time>2026-10-06T15:15:36.000Z</time></trkpt>
    <trkpt lat="44.050516" lon="-121.307548"><time>2026-10-06T15:15:41.000Z</time></trkpt>
    <trkpt lat="44.050358" lon="-121.307392"><time>2026-10-06T15:15:46.000Z</time></trkpt>
    <trkpt lat="44.050225" lon="-121.307256"><time>2026-10-06T15:15:51.000Z</time></trkpt>
    <trkpt lat="44.050077" lon="-121.307082"><time>2026-10-06T15:15:56.000Z</time></trkpt>
    <trkpt lat="44.049900" lon="-121.306938"><time>2026-10-06T15:16:01.000Z</time></trkpt>
    <trkpt lat="44.049755" lon="-121.306799"><time>2026-10-06T15:16:06.000Z</time></trkpt>
    <trkpt lat="44.049625" lon="-121.306651"><time>2026-10-06T15:16:11.000Z</time></trkpt>
    <trkpt lat="44.049451" lon="-121.306467"><time>2026-10-06T15:16:16.000Z</time></trkpt>
    <trkpt lat="44.049307" lon="-121.306337"><time>2026-10-06T15:16:21.000Z</time></trkpt>
    <trkpt lat="44.049139" lon="-121.306158"><time>2026-10-06T15:16:26.000Z</time></trkpt>
    <trkpt lat="44.048976" lon="-121.305984"><time>2026-10-06T15:16:31.000Z</time></trkpt>
    <trkpt lat="44.048817" lon="-121.305798"><time>2026-10-06T15:16:36.000Z</time></trkpt>
    <trkpt lat="44.048639" lon="-121.305634"><time>2026-10-06T15:16:41.000Z</time></trkpt>
    <trkpt lat="44.048450" lon="-121.305444"><time>2026-10-06T15:16:46.000Z</time></trkpt>
    <trkpt lat="44.048278" lon="-121.305283"><time>2026-10-06T15:16:51.000Z</time></trkpt>
    <trkpt lat="44.048106" lon="-121.305079"><time>2026-10-06T15:16:56.000Z</time></trkpt>
    <trkpt lat="44.047902" lon="-121.304918"><time>2026-10-06T15:17:01.000Z</time></trkpt>
    <trkpt lat="44.047728" lon="-121.304725"><time>2026-10-06T15:17:06.000Z</time></trkpt>
    <trkpt lat="44.047537" lon="-121.304522"><time>2026-10-06T15:17:11.000Z</time></trkpt>
    <trkpt lat="44.047325" lon="-121.304321"><time>2026-10-06T15:17:16.000Z</time></trkpt>
    <trkpt lat="44.047146" lon="-121.304137"><time>2026-10-06T15:17:21.000Z</time></trkpt>
    <trkpt lat="44.046929" lon="-121.303946"><time>2026-10-06T15:17:26.000Z</time></trkpt>
    <trkpt lat="44.046742" lon="-121.303727"><time>2026-10-06T15:17:31.000Z</time></trkpt>
    <trkpt lat="44.046529" lon="-121.303528"><time>2026-10-06T15:17:36.000Z</time></trkpt>
    <trkpt lat="44.046303" lon="-121.303305"><time>2026-10-06T15:17:41.000Z</time></trkpt>
    <trkpt lat="44.046100" lon="-121.303107"><time>2026-10-06T15:17:46.000Z</time></trkpt>
    <trkpt lat="44.045906" lon="-121.302887"><time>2026-10-06T15:17:51.000Z</time></trkpt>
    <trkpt lat="44.045679" lon="-121.302696"><time>2026-10-06T15:17:56.000Z</time></trkpt>
    <trkpt lat="44.045487" lon="-121.302506"><time>2026-10-06T15:18:01.000Z</time></trkpt>
    <trkpt lat="44.045294" lon="-121.302297"><time>2026-10-06T15:18:06.000Z</time></trkpt>
    <trkpt lat="44.045082" lon="-121.302089"><time>2026-10-06T15:18:11.000Z</time></trkpt>
    <trkpt lat="44.044870" lon="-121.301843"><time>2026-10-06T15:18:16.000Z</time></trkpt>
    <trkpt lat="44.044624" lon="-121.301624"><time>2026-10-06T15:18:21.000Z</time></trkpt>
    <trkpt lat="44.044405" lon="-121.301395"><time>2026-10-06T15:18:26.000Z</time></trkpt>
    <trkpt lat="44.044157" lon="-121.301185"><time>2026-10-06T15:18:31.000Z</time></trkpt>
    <trkpt lat="44.043959" lon="-121.300970"><time>2026-10-06T15:18:36.000Z</time></trkpt>
    <trkpt lat="44.043720" lon="-121.300714"><time>2026-10-06T15:18:41.000Z</time></trkpt>
    <trkpt lat="44.043487" lon="-121.300486"><time>2026-10-06T15:18:46.000Z</time></trkpt>
    <trkpt lat="44.043272" lon="-121.300265"><time>2026-10-06T15:18:51.000Z</time></trkpt>
    <trkpt lat="44.043050" lon="-121.300044"><time>2026-10-06T15:18:56.000Z</time></trkpt>
    <trkpt lat="44.042822" lon="-121.299831"><time>2026-10-06T15:19:01.000Z</time></trkpt>
    <trkpt lat="44.042623" lon="-121.299622"><time>2026-10-06T15:19:06.000Z</time></trkpt>
    <trkpt lat="44.042399" lon="-121.299405"><time>2026-10-06T15:19:11.000Z</time></trkpt>
    <trkpt lat="44.042165" lon="-121.299151"><time>2026-10-06T15:19:16.000Z</time></trkpt>
    <trkpt lat="44.041930" lon="-121.298940"><time>2026-10-06T15:19:21.000Z</time></trkpt>
    <trkpt lat="44.041717" lon="-121.298729"><time>2026-10-06T15:19:26.000Z</time></trkpt>
    <trkpt lat="44.041517" lon="-121.298514"><time>2026-10-06T15:19:31.000Z</time></trkpt>
    <trkpt lat="44.041292" lon="-121.298308"><time>2026-10-06T15:19:36.000Z</time></trkpt>
    <trkpt lat="44.041082" lon="-121.298089"><time>2026-10-06T15:19:41.000Z</time></trkpt>
    <trkpt lat="44.040889" lon="-121.297889"><time>2026-10-06T15:19:46.000Z</time></trkpt>
    <trkpt lat="44.040662" lon="-121.297676"><time>2026-10-06T15:19:51.000Z</time></trkpt>
    <trkpt lat="44.040465" lon="-121.297484"><time>2026-10-06T15:19:56.000Z</time></trkpt>
    <trkpt lat="44.040258" lon="-121.297271"><time>2026-10-06T15:20:01.000Z</time></trkpt>
    <trkpt lat="44.040065" lon="-121.297070"><time>2026-10-06T15:20:06.000Z</time></trkpt>
  </trkseg></trk>
</gpx>
