<?xml version="1.0" encoding="UTF-8"?>
<gpx version="1.1" creator="ghost-commute make-samples" xmlns="http://www.topografix.com/GPX/1/1">
  <metadata><name>car-commute (synthetic)</name></metadata>
  <trk><name>car-commute</name><trkseg>
    <trkpt lat="44.090486" lon="-121.356001"><time>2026-10-06T15:02:11.000Z</time></trkpt>
    <trkpt lat="44.090235" lon="-121.355535"><time>2026-10-06T15:02:14.000Z</time></trkpt>
    <trkpt lat="44.089966" lon="-121.355085"><time>2026-10-06T15:02:17.000Z</time></trkpt>
    <trkpt lat="44.089698" lon="-121.354670"><time>2026-10-06T15:02:20.000Z</time></trkpt>
    <trkpt lat="44.089411" lon="-121.354188"><time>2026-10-06T15:02:23.000Z</time></trkpt>
    <trkpt lat="44.089106" lon="-121.353720"><time>2026-10-06T15:02:26.000Z</time></trkpt>
    <trkpt lat="44.088843" lon="-121.353263"><time>2026-10-06T15:02:29.000Z</time></trkpt>
    <trkpt lat="44.088531" lon="-121.352774"><time>2026-10-06T15:02:32.000Z</time></trkpt>
    <trkpt lat="44.088247" lon="-121.352260"><time>2026-10-06T15:02:35.000Z</time></trkpt>
    <trkpt lat="44.087927" lon="-121.351756"><time>2026-10-06T15:02:38.000Z</time></trkpt>
    <trkpt lat="44.087644" lon="-121.351263"><time>2026-10-06T15:02:41.000Z</time></trkpt>
    <trkpt lat="44.087318" lon="-121.350744"><time>2026-10-06T15:02:44.000Z</time></trkpt>
    <trkpt lat="44.087004" lon="-121.350218"><time>2026-10-06T15:02:47.000Z</time></trkpt>
    <trkpt lat="44.086666" lon="-121.349698"><time>2026-10-06T15:02:50.000Z</time></trkpt>
    <trkpt lat="44.086353" lon="-121.349194"><time>2026-10-06T15:02:53.000Z</time></trkpt>
    <trkpt lat="44.086042" lon="-121.348643"><time>2026-10-06T15:02:56.000Z</time></trkpt>
    <trkpt lat="44.085713" lon="-121.348135"><time>2026-10-06T15:02:59.000Z</time></trkpt>
    <trkpt lat="44.085393" lon="-121.347591"><time>2026-10-06T15:03:02.000Z</time></trkpt>
    <trkpt lat="44.085051" lon="-121.347053"><time>2026-10-06T15:03:05.000Z</time></trkpt>
    <trkpt lat="44.084734" lon="-121.346525"><time>2026-10-06T15:03:08.000Z</time></trkpt>
    <trkpt lat="44.084411" lon="-121.346004"><time>2026-10-06T15:03:11.000Z</time></trkpt>
    <trkpt lat="44.084107" lon="-121.345456"><time>2026-10-06T15:03:14.000Z</time></trkpt>
    <trkpt lat="44.083784" lon="-121.344967"><time>2026-10-06T15:03:17.000Z</time></trkpt>
    <trkpt lat="44.083482" lon="-121.344447"><time>2026-10-06T15:03:20.000Z</time></trkpt>
    <trkpt lat="44.083151" lon="-121.343918"><time>2026-10-06T15:03:23.000Z</time></trkpt>
    <trkpt lat="44.082823" lon="-121.343361"><time>2026-10-06T15:03:26.000Z</time></trkpt>
    <trkpt lat="44.082500" lon="-121.342854"><time>2026-10-06T15:03:29.000Z</time></trkpt>
    <trkpt lat="44.082191" lon="-121.342336"><time>2026-10-06T15:03:32.000Z</time></trkpt>
    <trkpt lat="44.081870" lon="-121.341904"><time>2026-10-06T15:03:35.000Z</time></trkpt>
    <trkpt lat="44.081408" lon="-121.341572"><time>2026-10-06T15:03:38.000Z</time></trkpt>
    <trkpt lat="44.080997" lon="-121.341257"><time>2026-10-06T15:03:41.000Z</time></trkpt>
    <trkpt lat="44.080601" lon="-121.340943"><time>2026-10-06T15:03:44.000Z</time></trkpt>
    <trkpt lat="44.080181" lon="-121.340628"><time>2026-10-06T15:03:47.000Z</time></trkpt>
    <trkpt lat="44.079757" lon="-121.340329"><time>2026-10-06T15:03:50.000Z</time></trkpt>
    <trkpt lat="44.079378" lon="-121.340043"><time>2026-10-06T15:03:53.000Z</time></trkpt>
    <trkpt lat="44.078968" lon="-121.339721"><time>2026-10-06T15:03:56.000Z</time></trkpt>
    <trkpt lat="44.078529" lon="-121.339397"><time>2026-10-06T15:03:59.000Z</time></trkpt>
    <trkpt lat="44.078118" lon="-121.339097"><time>2026-10-06T15:04:02.000Z</time></trkpt>
    <trkpt lat="44.077755" lon="-121.338807"><time>2026-10-06T15:04:05.000Z</time></trkpt>
    <trkpt lat="44.077367" lon="-121.338528"><time>2026-10-06T15:04:08.000Z</time></trkpt>
    <trkpt lat="44.076998" lon="-121.338245"><time>2026-10-06T15:04:11.000Z</time></trkpt>
    <trkpt lat="44.076616" lon="-121.337977"><time>2026-10-06T15:04:14.000Z</time></trkpt>
    <trkpt lat="44.076256" lon="-121.337692"><time>2026-10-06T15:04:17.000Z</time></trkpt>
    <trkpt lat="44.075897" lon="-121.337424"><time>2026-10-06T15:04:20.000Z</time></trkpt>
    <trkpt lat="44.075570" lon="-121.337178"><time>2026-10-06T15:04:23.000Z</time></trkpt>
    <trkpt lat="44.075189" lon="-121.336878"><time>2026-10-06T15:04:26.000Z</time></trkpt>
    <trkpt lat="44.074847" lon="-121.336629"><time>2026-10-06T15:04:29.000Z</time></trkpt>
    <trkpt lat="44.074535" lon="-121.336385"><time>2026-10-06T15:04:32.000Z</time></trkpt>
    <trkpt lat="44.074196" lon="-121.336143"><time>2026-10-06T15:04:35.000Z</time></trkpt>
    <trkpt lat="44.073858" lon="-121.335890"><time>2026-10-06T15:04:38.000Z</time></trkpt>
    <trkpt lat="44.073524" lon="-121.335665"><time>2026-10-06T15:04:41.000Z</time></trkpt>
    <trkpt lat="44.073205" lon="-121.335426"><time>2026-10-06T15:04:44.000Z</time></trkpt>
    <trkpt lat="44.072894" lon="-121.335187"><time>2026-10-06T15:04:47.000Z</time></trkpt>
    <trkpt lat="44.072605" lon="-121.334949"><time>2026-10-06T15:04:50.000Z</time></trkpt>
    <trkpt lat="44.072281" lon="-121.334713"><time>2026-10-06T15:04:53.000Z</time></trkpt>
    <trkpt lat="44.071993" lon="-121.334497"><time>2026-10-06T15:04:56.000Z</time></trkpt>
    <trkpt lat="44.071690" lon="-121.334281"><time>2026-10-06T15:04:59.000Z</time></trkpt>
    <trkpt lat="44.071418" lon="-121.334049"><time>2026-10-06T15:05:02.000Z</time></trkpt>
    <trkpt lat="44.071123" lon="-121.333838"><time>2026-10-06T15:05:05.000Z</time></trkpt>
    <trkpt lat="44.070832" lon="-121.333627"><time>2026-10-06T15:05:08.000Z</time></trkpt>
    <trkpt lat="44.070564" lon="-121.333426"><time>2026-10-06T15:05:11.000Z</time></trkpt>
    <trkpt lat="44.070315" lon="-121.333235"><time>2026-10-06T15:05:14.000Z</time></trkpt>
    <trkpt lat="44.070026" lon="-121.333003"><time>2026-10-06T15:05:17.000Z</time></trkpt>
    <trkpt lat="44.069806" lon="-121.332664"><time>2026-10-06T15:05:20.000Z</time></trkpt>
    <trkpt lat="44.069594" lon="-121.332370"><time>2026-10-06T15:05:23.000Z</time></trkpt>
    <trkpt lat="44.069378" lon="-121.332014"><time>2026-10-06T15:05:26.000Z</time></trkpt>
    <trkpt lat="44.069206" lon="-121.331698"><time>2026-10-06T15:05:29.000Z</time></trkpt>
    <trkpt lat="44.068977" lon="-121.331328"><time>2026-10-06T15:05:32.000Z</time></trkpt>
    <trkpt lat="44.068761" lon="-121.330972"><time>2026-10-06T15:05:35.000Z</time></trkpt>
    <trkpt lat="44.068545" lon="-121.330649"><time>2026-10-06T15:05:38.000Z</time></trkpt>
    <trkpt lat="44.068316" lon="-121.330289"><time>2026-10-06T15:05:41.000Z</time></trkpt>
    <trkpt lat="44.068110" lon="-121.329943"><time>2026-10-06T15:05:44.000Z</time></trkpt>
    <trkpt lat="44.067921" lon="-121.329593"><time>2026-10-06T15:05:47.000Z</time></trkpt>
    <trkpt lat="44.067703" lon="-121.329245"><time>2026-10-06T15:05:50.000Z</time></trkpt>
    <trkpt lat="44.067474" lon="-121.328865"><time>2026-10-06T15:05:53.000Z</time></trkpt>
    <trkpt lat="44.067242" lon="-121.328511"><time>2026-10-06T15:05:56.000Z</time></trkpt>
    <trkpt lat="44.067002" lon="-121.328145"><time>2026-10-06T15:05:59.000Z</time></trkpt>
    <trkpt lat="44.066751" lon="-121.327732"><time>2026-10-06T15:06:02.000Z</time></trkpt>
    <trkpt lat="44.066518" lon="-121.327345"><time>2026-10-06T15:06:05.000Z</time></trkpt>
    <trkpt lat="44.066254" lon="-121.326923"><time>2026-10-06T15:06:08.000Z</time></trkpt>
    <trkpt lat="44.066012" lon="-121.326537"><time>2026-10-06T15:06:11.000Z</time></trkpt>
    <trkpt lat="44.065778" lon="-121.326128"><time>2026-10-06T15:06:14.000Z</time></trkpt>
    <trkpt lat="44.065518" lon="-121.325706"><time>2026-10-06T15:06:17.000Z</time></trkpt>
    <trkpt lat="44.065282" lon="-121.325309"><time>2026-10-06T15:06:20.000Z</time></trkpt>
    <trkpt lat="44.064998" lon="-121.324872"><time>2026-10-06T15:06:23.000Z</time></trkpt>
    <trkpt lat="44.064751" lon="-121.324454"><time>2026-10-06T15:06:26.000Z</time></trkpt>
    <trkpt lat="44.064483" lon="-121.324033"><time>2026-10-06T15:06:29.000Z</time></trkpt>
    <trkpt lat="44.064187" lon="-121.323586"><time>2026-10-06T15:06:32.000Z</time></trkpt>
    <trkpt lat="44.063930" lon="-121.323137"><time>2026-10-06T15:06:35.000Z</time></trkpt>
    <trkpt lat="44.063637" lon="-121.322646"><time>2026-10-06T15:06:38.000Z</time></trkpt>
    <trkpt lat="44.063328" lon="-121.322154"><time>2026-10-06T15:06:41.000Z</time></trkpt>
    <trkpt lat="44.063023" lon="-121.321691"><time>2026-10-06T15:06:44.000Z</time></trkpt>
    <trkpt lat="44.062722" lon="-121.321173"><time>2026-10-06T15:06:47.000Z</time></trkpt>
    <trkpt lat="44.062419" lon="-121.320691"><time>2026-10-06T15:06:50.000Z</time></trkpt>
    <trkpt lat="44.062120" lon="-121.320198"><time>2026-10-06T15:06:53.000Z</time></trkpt>
    <trkpt lat="44.061796" lon="-121.319752"><time>2026-10-06T15:06:56.000Z</time></trkpt>
    <trkpt lat="44.061434" lon="-121.319304"><time>2026-10-06T15:06:59.000Z</time></trkpt>
    <trkpt lat="44.061051" lon="-121.318848"><time>2026-10-06T15:07:02.000Z</time></trkpt>
    <trkpt lat="44.060699" lon="-121.318403"><time>2026-10-06T15:07:05.000Z</time></trkpt>
    <trkpt lat="44.060315" lon="-121.317912"><time>2026-10-06T15:07:08.000Z</time></trkpt>
    <trkpt lat="44.059964" lon="-121.317478"><time>2026-10-06T15:07:11.000Z</time></trkpt>
    <trkpt lat="44.059591" lon="-121.317010"><time>2026-10-06T15:07:14.000Z</time></trkpt>
    <trkpt lat="44.059236" lon="-121.316573"><time>2026-10-06T15:07:17.000Z</time></trkpt>
    <trkpt lat="44.058864" lon="-121.316128"><time>2026-10-06T15:07:20.000Z</time></trkpt>
    <trkpt lat="44.058484" lon="-121.315661"><time>2026-10-06T15:07:23.000Z</time></trkpt>
    <trkpt lat="44.058103" lon="-121.315210"><time>2026-10-06T15:07:26.000Z</time></trkpt>
    <trkpt lat="44.057691" lon="-121.314762"><time>2026-10-06T15:07:29.000Z</time></trkpt>
    <trkpt lat="44.057285" lon="-121.314371"><time>2026-10-06T15:07:32.000Z</time></trkpt>
    <trkpt lat="44.056869" lon="-121.313940"><time>2026-10-06T15:07:35.000Z</time></trkpt>
    <trkpt lat="44.056446" lon="-121.313551"><time>2026-10-06T15:07:38.000Z</time></trkpt>
    <trkpt lat="44.056051" lon="-121.313147"><time>2026-10-06T15:07:41.000Z</time></trkpt>
    <trkpt lat="44.055669" lon="-121.312746"><time>2026-10-06T15:07:44.000Z</time></trkpt>
    <trkpt lat="44.055288" lon="-121.312361"><time>2026-10-06T15:07:47.000Z</time></trkpt>
    <trkpt lat="44.054911" lon="-121.311973"><time>2026-10-06T15:07:50.000Z</time></trkpt>
    <trkpt lat="44.054516" lon="-121.311575"><time>2026-10-06T15:07:53.000Z</time></trkpt>
    <trkpt lat="44.054123" lon="-121.311176"><time>2026-10-06T15:07:56.000Z</time></trkpt>
    <trkpt lat="44.053746" lon="-121.310777"><time>2026-10-06T15:07:59.000Z</time></trkpt>
    <trkpt lat="44.053369" lon="-121.310428"><time>2026-10-06T15:08:02.000Z</time></trkpt>
    <trkpt lat="44.053003" lon="-121.310031"><time>2026-10-06T15:08:05.000Z</time></trkpt>
    <trkpt lat="44.052603" lon="-121.309661"><time>2026-10-06T15:08:08.000Z</time></trkpt>
    <trkpt lat="44.052260" lon="-121.309307"><time>2026-10-06T15:08:11.000Z</time></trkpt>
    <trkpt lat="44.051880" lon="-121.308904"><time>2026-10-06T15:08:14.000Z</time></trkpt>
    <trkpt lat="44.051505" lon="-121.308524"><time>2026-10-06T15:08:17.000Z</time></trkpt>
    <trkpt lat="44.051172" lon="-121.308198"><time>2026-10-06T15:08:20.000Z</time></trkpt>
    <trkpt lat="44.050831" lon="-121.307840"><time>2026-10-06T15:08:23.000Z</time></trkpt>
    <trkpt lat="44.050486" lon="-121.307527"><time>2026-10-06T15:08:26.000Z</time></trkpt>
    <trkpt lat="44.050164" lon="-121.307188"><time>2026-10-06T15:08:29.000Z</time></trkpt>
    <trkpt lat="44.049822" lon="-121.306833"><time>2026-10-06T15:08:32.000Z</time></trkpt>
    <trkpt lat="44.049495" lon="-121.306515"><time>2026-10-06T15:08:35.000Z</time></trkpt>
    <trkpt lat="44.049190" lon="-121.306197"><time>2026-10-06T15:08:38.000Z</time></trkpt>
    <trkpt lat="44.048852" lon="-121.305879"><time>2026-10-06T15:08:41.000Z</time></trkpt>
    <trkpt lat="44.048555" lon="-121.305567"><time>2026-10-06T15:08:44.000Z</time></trkpt>
    <trkpt lat="44.048250" lon="-121.305270"><time>2026-10-06T15:08:47.000Z</time></trkpt>
    <trkpt lat="44.047976" lon="-121.304951"><time>2026-10-06T15:08:50.000Z</time></trkpt>
    <trkpt lat="44.047675" lon="-121.304664"><time>2026-10-06T15:08:53.000Z</time></trkpt>
    <trkpt lat="44.047389" lon="-121.304398"><time>2026-10-06T15:08:56.000Z</time></trkpt>
    <trkpt lat="44.047102" lon="-121.304104"><time>2026-10-06T15:08:59.000Z</time></trkpt>
    <trkpt lat="44.046788" lon="-121.303803"><time>2026-10-06T15:09:02.000Z</time></trkpt>
    <trkpt lat="44.046538" lon="-121.303547"><time>2026-10-06T15:09:05.000Z</time></trkpt>
    <trkpt lat="44.046234" lon="-121.303247"><time>2026-10-06T15:09:08.000Z</time></trkpt>
    <trkpt lat="44.045977" lon="-121.302992"><time>2026-10-06T15:09:11.000Z</time></trkpt>
    <trkpt lat="44.045731" lon="-121.302722"><time>2026-10-06T15:09:14.000Z</time></trkpt>
    <trkpt lat="44.045458" lon="-121.302444"><time>2026-10-06T15:09:17.000Z</time></trkpt>
    <trkpt lat="44.045180" lon="-121.302205"><time>2026-10-06T15:09:20.000Z</time></trkpt>
    <trkpt lat="44.044945" lon="-121.301928"><time>2026-10-06T15:09:23.000Z</time></trkpt>
    <trkpt lat="44.044668" lon="-121.301676"><time>2026-10-06T15:09:26.000Z</time></trkpt>
    <trkpt lat="44.044431" lon="-121.301442"><time>2026-10-06T15:09:29.000Z</time></trkpt>
    <trkpt lat="44.044167" lon="-121.301171"><time>2026-10-06T15:09:32.000Z</time></trkpt>
    <trkpt lat="44.043899" lon="-121.300874"><time>2026-10-06T15:09:35.000Z</time></trkpt>
    <trkpt lat="44.043618" lon="-121.300619"><time>2026-10-06T15:09:38.000Z</time></trkpt>
    <trkpt lat="44.043363" lon="-121.300368"><time>2026-10-06T15:09:41.000Z</time></trkpt>
    <trkpt lat="44.043096" lon="-121.300096"><time>2026-10-06T15:09:44.000Z</time></trkpt>
    <trkpt lat="44.042812" lon="-121.299804"><time>2026-10-06T15:09:47.000Z</time></trkpt>
    <trkpt lat="44.042526" lon="-121.299545"><time>2026-10-06T15:09:50.000Z</time></trkpt>
    <trkpt lat="44.042250" lon="-121.299260"><time>2026-10-06T15:09:53.000Z</time></trkpt>
    <trkpt lat="44.041984" lon="-121.299005"><time>2026-10-06T15:09:56.000Z</time></trkpt>
    <trkpt lat="44.041721" lon="-121.298714"><time>2026-10-06T15:09:59.000Z</time></trkpt>
    <trkpt lat="44.041434" lon="-121.298450"><time>2026-10-06T15:10:02.000Z</time></trkpt>
    <trkpt lat="44.041157" lon="-121.298153"><time>2026-10-06T15:10:05.000Z</time></trkpt>
    <trkpt lat="44.040880" lon="-121.297878"><time>2026-10-06T15:10:08.000Z</time></trkpt>
    <trkpt lat="44.040575" lon="-121.297580"><time>2026-10-06T15:10:11.000Z</time></trkpt>
    <trkpt lat="44.040303" lon="-121.297305"><time>2026-10-06T15:10:14.000Z</time></trkpt>
    <trkpt lat="44.039999" lon="-121.297000"><time>2026-10-06T15:10:17.000Z</time></trkpt>
  </trkseg></trk>
</gpx>
