<?xml version="1.0" encoding="UTF-8"?>
<gpx version="1.1" creator="ghost-commute make-samples" xmlns="http://www.topografix.com/GPX/1/1">
  <metadata><name>walk (synthetic)</name></metadata>
  <trk><name>walk</name><trkseg>
    <trkpt lat="44.090495" lon="-121.356004"><time>2026-10-06T15:02:11.000Z</time></trkpt>
    <trkpt lat="44.090427" lon="-121.355856"><time>2026-10-06T15:02:21.000Z</time></trkpt>
    <trkpt lat="44.090330" lon="-121.355716"><time>2026-10-06T15:02:31.000Z</time></trkpt>
    <trkpt lat="44.090251" lon="-121.355599"><time>2026-10-06T15:02:41.000Z</time></trkpt>
    <trkpt lat="44.090185" lon="-121.355487"><time>2026-10-06T15:02:51.000Z</time></trkpt>
    <trkpt lat="44.090109" lon="-121.355353"><time>2026-10-06T15:03:01.000Z</time></trkpt>
    <trkpt lat="44.090022" lon="-121.355198"><time>2026-10-06T15:03:11.000Z</time></trkpt>
    <trkpt lat="44.089942" lon="-121.355086"><time>2026-10-06T15:03:21.000Z</time></trkpt>
    <trkpt lat="44.089864" lon="-121.354931"><time>2026-10-06T15:03:31.000Z</time></trkpt>
    <trkpt lat="44.089763" lon="-121.354789"><time>2026-10-06T15:03:41.000Z</time></trkpt>
    <trkpt lat="44.089674" lon="-121.354671"><time>2026-10-06T15:03:51.000Z</time></trkpt>
    <trkpt lat="44.089611" lon="-121.354534"><time>2026-10-06T15:04:01.000Z</time></trkpt>
    <trkpt lat="44.089525" lon="-121.354391"><time>2026-10-06T15:04:11.000Z</time></trkpt>
    <trkpt lat="44.089455" lon="-121.354271"><time>2026-10-06T15:04:21.000Z</time></trkpt>
    <trkpt lat="44.089370" lon="-121.354130"><time>2026-10-06T15:04:31.000Z</time></trkpt>
    <trkpt lat="44.089302" lon="-121.354017"><time>2026-10-06T15:04:41.000Z</time></trkpt>
    <trkpt lat="44.089219" lon="-121.353893"><time>2026-10-06T15:04:51.000Z</time></trkpt>
    <trkpt lat="44.089129" lon="-121.353770"><time>2026-10-06T15:05:01.000Z</time></trkpt>
    <trkpt lat="44.089060" lon="-121.353644"><time>2026-10-06T15:05:11.000Z</time></trkpt>
    <trkpt lat="44.088989" lon="-121.353523"><time>2026-10-06T15:05:21.000Z</time></trkpt>
    <trkpt lat="44.088908" lon="-121.353387"><time>2026-10-06T15:05:31.000Z</time></trkpt>
    <trkpt lat="44.088838" lon="-121.353256"><time>2026-10-06T15:05:41.000Z</time></trkpt>
    <trkpt lat="44.088762" lon="-121.353113"><time>2026-10-06T15:05:51.000Z</time></trkpt>
    <trkpt lat="44.088662" lon="-121.352985"><time>2026-10-06T15:06:01.000Z</time></trkpt>
    <trkpt lat="44.088602" lon="-121.352852"><time>2026-10-06T15:06:11.000Z</time></trkpt>
    <trkpt lat="44.088492" lon="-121.352725"><time>2026-10-06T15:06:21.000Z</time></trkpt>
    <trkpt lat="44.088420" lon="-121.352595"><time>2026-10-06T15:06:31.000Z</time></trkpt>
    <trkpt lat="44.088358" lon="-121.352449"><time>2026-10-06T15:06:41.000Z</time></trkpt>
    <trkpt lat="44.088271" lon="-121.352329"><time>2026-10-06T15:06:51.000Z</time></trkpt>
    <trkpt lat="44.088175" lon="-121.352202"><time>2026-10-06T15:07:01.000Z</time></trkpt>
    <trkpt lat="44.088104" lon="-121.352064"><time>2026-10-06T15:07:11.000Z</time></trkpt>
    <trkpt lat="44.088044" lon="-121.351934"><time>2026-10-06T15:07:21.000Z</time></trkpt>
    <trkpt lat="44.087946" lon="-121.351820"><time>2026-10-06T15:07:31.000Z</time></trkpt>
    <trkpt lat="44.087862" lon="-121.351671"><time>2026-10-06T15:07:41.000Z</time></trkpt>
    <trkpt lat="44.087792" lon="-121.351545"><time>2026-10-06T15:07:51.000Z</time></trkpt>
    <trkpt lat="44.087705" lon="-121.351407"><time>2026-10-06T15:08:01.000Z</time></trkpt>
    <trkpt lat="44.087622" lon="-121.351285"><time>2026-10-06T15:08:11.000Z</time></trkpt>
    <trkpt lat="44.087562" lon="-121.351159"><time>2026-10-06T15:08:21.000Z</time></trkpt>
    <trkpt lat="44.087488" lon="-121.351025"><time>2026-10-06T15:08:31.000Z</time></trkpt>
    <trkpt lat="44.087413" lon="-121.350899"><time>2026-10-06T15:08:41.000Z</time></trkpt>
    <trkpt lat="44.087331" lon="-121.350783"><time>2026-10-06T15:08:51.000Z</time></trkpt>
    <trkpt lat="44.087259" lon="-121.350640"><time>2026-10-06T15:09:01.000Z</time></trkpt>
    <trkpt lat="44.087172" lon="-121.350509"><time>2026-10-06T15:09:11.000Z</time></trkpt>
    <trkpt lat="44.087089" lon="-121.350378"><time>2026-10-06T15:09:21.000Z</time></trkpt>
    <trkpt lat="44.087025" lon="-121.350272"><time>2026-10-06T15:09:31.000Z</time></trkpt>
    <trkpt lat="44.086938" lon="-121.350119"><time>2026-10-06T15:09:41.000Z</time></trkpt>
    <trkpt lat="44.086856" lon="-121.349978"><time>2026-10-06T15:09:51.000Z</time></trkpt>
    <trkpt lat="44.086750" lon="-121.349860"><time>2026-10-06T15:10:01.000Z</time></trkpt>
    <trkpt lat="44.086695" lon="-121.349713"><time>2026-10-06T15:10:11.000Z</time></trkpt>
    <trkpt lat="44.086611" lon="-121.349561"><time>2026-10-06T15:10:21.000Z</time></trkpt>
    <trkpt lat="44.086530" lon="-121.349447"><time>2026-10-06T15:10:31.000Z</time></trkpt>
    <trkpt lat="44.086417" lon="-121.349284"><time>2026-10-06T15:10:41.000Z</time></trkpt>
    <trkpt lat="44.086344" lon="-121.349142"><time>2026-10-06T15:10:51.000Z</time></trkpt>
    <trkpt lat="44.086249" lon="-121.349017"><time>2026-10-06T15:11:01.000Z</time></trkpt>
    <trkpt lat="44.086177" lon="-121.348875"><time>2026-10-06T15:11:11.000Z</time></trkpt>
    <trkpt lat="44.086088" lon="-121.348738"><time>2026-10-06T15:11:21.000Z</time></trkpt>
    <trkpt lat="44.086014" lon="-121.348604"><time>2026-10-06T15:11:31.000Z</time></trkpt>
    <trkpt lat="44.085942" lon="-121.348484"><time>2026-10-06T15:11:41.000Z</time></trkpt>
    <trkpt lat="44.085868" lon="-121.348350"><time>2026-10-06T15:11:51.000Z</time></trkpt>
    <trkpt lat="44.085780" lon="-121.348240"><time>2026-10-06T15:12:01.000Z</time></trkpt>
    <trkpt lat="44.085690" lon="-121.348096"><time>2026-10-06T15:12:11.000Z</time></trkpt>
    <trkpt lat="44.085612" lon="-121.347979"><time>2026-10-06T15:12:21.000Z</time></trkpt>
    <trkpt lat="44.085547" lon="-121.347835"><time>2026-10-06T15:12:31.000Z</time></trkpt>
    <trkpt lat="44.085469" lon="-121.347696"><time>2026-10-06T15:12:41.000Z</time></trkpt>
    <trkpt lat="44.085362" lon="-121.347568"><time>2026-10-06T15:12:51.000Z</time></trkpt>
    <trkpt lat="44.085294" lon="-121.347447"><time>2026-10-06T15:13:01.000Z</time></trkpt>
    <trkpt lat="44.085224" lon="-121.347298"><time>2026-10-06T15:13:11.000Z</time></trkpt>
    <trkpt lat="44.085130" lon="-121.347154"><time>2026-10-06T15:13:21.000Z</time></trkpt>
    <trkpt lat="44.085052" lon="-121.347032"><time>2026-10-06T15:13:31.000Z</time></trkpt>
    <trkpt lat="44.084976" lon="-121.346888"><time>2026-10-06T15:13:41.000Z</time></trkpt>
    <trkpt lat="44.084884" lon="-121.346751"><time>2026-10-06T15:13:51.000Z</time></trkpt>
    <trkpt lat="44.084818" lon="-121.346613"><time>2026-10-06T15:14:01.000Z</time></trkpt>
    <trkpt lat="44.084710" lon="-121.346486"><time>2026-10-06T15:14:11.000Z</time></trkpt>
    <trkpt lat="44.084631" lon="-121.346355"><time>2026-10-06T15:14:21.000Z</time></trkpt>
    <trkpt lat="44.084558" lon="-121.346196"><time>2026-10-06T15:14:31.000Z</time></trkpt>
    <trkpt lat="44.084477" lon="-121.346060"><time>2026-10-06T15:14:41.000Z</time></trkpt>
    <trkpt lat="44.084389" lon="-121.345932"><time>2026-10-06T15:14:51.000Z</time></trkpt>
    <trkpt lat="44.084299" lon="-121.345796"><time>2026-10-06T15:15:01.000Z</time></trkpt>
    <trkpt lat="44.084218" lon="-121.345670"><time>2026-10-06T15:15:11.000Z</time></trkpt>
    <trkpt lat="44.084134" lon="-121.345525"><time>2026-10-06T15:15:21.000Z</time></trkpt>
    <trkpt lat="44.084052" lon="-121.345374"><time>2026-10-06T15:15:31.000Z</time></trkpt>
    <trkpt lat="44.083973" lon="-121.345254"><time>2026-10-06T15:15:41.000Z</time></trkpt>
    <trkpt lat="44.083884" lon="-121.345120"><time>2026-10-06T15:15:51.000Z</time></trkpt>
    <trkpt lat="44.083803" lon="-121.344996"><time>2026-10-06T15:16:01.000Z</time></trkpt>
    <trkpt lat="44.083739" lon="-121.344881"><time>2026-10-06T15:16:11.000Z</time></trkpt>
    <trkpt lat="44.083678" lon="-121.344758"><time>2026-10-06T15:16:21.000Z</time></trkpt>
    <trkpt lat="44.083572" lon="-121.344598"><time>2026-10-06T15:16:31.000Z</time></trkpt>
    <trkpt lat="44.083503" lon="-121.344466"><time>2026-10-06T15:16:41.000Z</time></trkpt>
    <trkpt lat="44.083416" lon="-121.344345"><time>2026-10-06T15:16:51.000Z</time></trkpt>
    <trkpt lat="44.083348" lon="-121.344214"><time>2026-10-06T15:17:01.000Z</time></trkpt>
    <trkpt lat="44.083237" lon="-121.344042"><time>2026-10-06T15:17:11.000Z</time></trkpt>
    <trkpt lat="44.083172" lon="-121.343914"><time>2026-10-06T15:17:21.000Z</time></trkpt>
    <trkpt lat="44.083090" lon="-121.343779"><time>2026-10-06T15:17:31.000Z</time></trkpt>
    <trkpt lat="44.083014" lon="-121.343674"><time>2026-10-06T15:17:41.000Z</time></trkpt>
    <trkpt lat="44.082929" lon="-121.343519"><time>2026-10-06T15:17:51.000Z</time></trkpt>
    <trkpt lat="44.082840" lon="-121.343409"><time>2026-10-06T15:18:01.000Z</time></trkpt>
    <trkpt lat="44.082773" lon="-121.343268"><time>2026-10-06T15:18:11.000Z</time></trkpt>
    <trkpt lat="44.082702" lon="-121.343134"><time>2026-10-06T15:18:21.000Z</time></trkpt>
    <trkpt lat="44.082627" lon="-121.342996"><time>2026-10-06T15:18:31.000Z</time></trkpt>
    <trkpt lat="44.082526" lon="-121.342867"><time>2026-10-06T15:18:41.000Z</time></trkpt>
    <trkpt lat="44.082450" lon="-121.342745"><time>2026-10-06T15:18:51.000Z</time></trkpt>
    <trkpt lat="44.082367" lon="-121.342610"><time>2026-10-06T15:19:01.000Z</time></trkpt>
    <trkpt lat="44.082279" lon="-121.342457"><time>2026-10-06T15:19:11.000Z</time></trkpt>
    <trkpt lat="44.082198" lon="-121.342320"><time>2026-10-06T15:19:21.000Z</time></trkpt>
    <trkpt lat="44.082103" lon="-121.342173"><time>2026-10-06T15:19:31.000Z</time></trkpt>
    <trkpt lat="44.082038" lon="-121.342049"><time>2026-10-06T15:19:41.000Z</time></trkpt>
    <trkpt lat="44.081926" lon="-121.341949"><time>2026-10-06T15:19:51.000Z</time></trkpt>
    <trkpt lat="44.081824" lon="-121.341855"><time>2026-10-06T15:20:01.000Z</time></trkpt>
    <trkpt lat="44.081713" lon="-121.341780"><time>2026-10-06T15:20:11.000Z</time></trkpt>
    <trkpt lat="44.081596" lon="-121.341710"><time>2026-10-06T15:20:21.000Z</time></trkpt>
    <trkpt lat="44.081500" lon="-121.341608"><time>2026-10-06T15:20:31.000Z</time></trkpt>
    <trkpt lat="44.081410" lon="-121.341549"><time>2026-10-06T15:20:41.000Z</time></trkpt>
    <trkpt lat="44.081286" lon="-121.341472"><time>2026-10-06T15:20:51.000Z</time></trkpt>
    <trkpt lat="44.081194" lon="-121.341390"><time>2026-10-06T15:21:01.000Z</time></trkpt>
    <trkpt lat="44.081058" lon="-121.341304"><time>2026-10-06T15:21:11.000Z</time></trkpt>
    <trkpt lat="44.080967" lon="-121.341211"><time>2026-10-06T15:21:21.000Z</time></trkpt>
    <trkpt lat="44.080836" lon="-121.341136"><time>2026-10-06T15:21:31.000Z</time></trkpt>
    <trkpt lat="44.080742" lon="-121.341060"><time>2026-10-06T15:21:41.000Z</time></trkpt>
    <trkpt lat="44.080606" lon="-121.340966"><time>2026-10-06T15:21:51.000Z</time></trkpt>
    <trkpt lat="44.080523" lon="-121.340885"><time>2026-10-06T15:22:01.000Z</time></trkpt>
    <trkpt lat="44.080406" lon="-121.340810"><time>2026-10-06T15:22:11.000Z</time></trkpt>
    <trkpt lat="44.080299" lon="-121.340710"><time>2026-10-06T15:22:21.000Z</time></trkpt>
    <trkpt lat="44.080186" lon="-121.340649"><time>2026-10-06T15:22:31.000Z</time></trkpt>
    <trkpt lat="44.080082" lon="-121.340553"><time>2026-10-06T15:22:41.000Z</time></trkpt>
    <trkpt lat="44.079958" lon="-121.340488"><time>2026-10-06T15:22:51.000Z</time></trkpt>
    <trkpt lat="44.079856" lon="-121.340404"><time>2026-10-06T15:23:01.000Z</time></trkpt>
    <trkpt lat="44.079742" lon="-121.340331"><time>2026-10-06T15:23:11.000Z</time></trkpt>
    <trkpt lat="44.079644" lon="-121.340230"><time>2026-10-06T15:23:21.000Z</time></trkpt>
    <trkpt lat="44.079562" lon="-121.340178"><time>2026-10-06T15:23:31.000Z</time></trkpt>
    <trkpt lat="44.079431" lon="-121.340095"><time>2026-10-06T15:23:41.000Z</time></trkpt>
    <trkpt lat="44.079348" lon="-121.339991"><time>2026-10-06T15:23:51.000Z</time></trkpt>
    <trkpt lat="44.079218" lon="-121.339917"><time>2026-10-06T15:24:01.000Z</time></trkpt>
    <trkpt lat="44.079126" lon="-121.339824"><time>2026-10-06T15:24:11.000Z</time></trkpt>
    <trkpt lat="44.079011" lon="-121.339753"><time>2026-10-06T15:24:21.000Z</time></trkpt>
    <trkpt lat="44.078903" lon="-121.339681"><time>2026-10-06T15:24:31.000Z</time></trkpt>
    <trkpt lat="44.078789" lon="-121.339577"><time>2026-10-06T15:24:41.000Z</time></trkpt>
    <trkpt lat="44.078674" lon="-121.339502"><time>2026-10-06T15:24:51.000Z</time></trkpt>
    <trkpt lat="44.078551" lon="-121.339405"><time>2026-10-06T15:25:01.000Z</time></trkpt>
    <trkpt lat="44.078428" lon="-121.339309"><time>2026-10-06T15:25:11.000Z</time></trkpt>
    <trkpt lat="44.078324" lon="-121.339256"><time>2026-10-06T15:25:21.000Z</time></trkpt>
    <trkpt lat="44.078229" lon="-121.339155"><time>2026-10-06T15:25:31.000Z</time></trkpt>
    <trkpt lat="44.078102" lon="-121.339078"><time>2026-10-06T15:25:41.000Z</time></trkpt>
    <trkpt lat="44.077981" lon="-121.338981"><time>2026-10-06T15:25:51.000Z</time></trkpt>
    <trkpt lat="44.077877" lon="-121.338901"><time>2026-10-06T15:26:01.000Z</time></trkpt>
    <trkpt lat="44.077779" lon="-121.338831"><time>2026-10-06T15:26:11.000Z</time></trkpt>
    <trkpt lat="44.077655" lon="-121.338738"><time>2026-10-06T15:26:21.000Z</time></trkpt>
    <trkpt lat="44.077532" lon="-121.338644"><time>2026-10-06T15:26:31.000Z</time></trkpt>
    <trkpt lat="44.077455" lon="-121.338581"><time>2026-10-06T15:26:41.000Z</time></trkpt>
    <trkpt lat="44.077352" lon="-121.338513"><time>2026-10-06T15:26:51.000Z</time></trkpt>
    <trkpt lat="44.077238" lon="-121.338416"><time>2026-10-06T15:27:01.000Z</time></trkpt>
    <trkpt lat="44.077142" lon="-121.338349"><time>2026-10-06T15:27:11.000Z</time></trkpt>
    <trkpt lat="44.077020" lon="-121.338261"><time>2026-10-06T15:27:21.000Z</time></trkpt>
    <trkpt lat="44.076914" lon="-121.338208"><time>2026-10-06T15:27:31.000Z</time></trkpt>
    <trkpt lat="44.076822" lon="-121.338107"><time>2026-10-06T15:27:41.000Z</time></trkpt>
    <trkpt lat="44.076709" lon="-121.338031"><time>2026-10-06T15:27:51.000Z</time></trkpt>
    <trkpt lat="44.076605" lon="-121.337952"><time>2026-10-06T15:28:01.000Z</time></trkpt>
    <trkpt lat="44.076491" lon="-121.337873"><time>2026-10-06T15:28:11.000Z</time></trkpt>
    <trkpt lat="44.076398" lon="-121.337801"><time>2026-10-06T15:28:21.000Z</time></trkpt>
    <trkpt lat="44.076263" lon="-121.337709"><time>2026-10-06T15:28:31.000Z</time></trkpt>
    <trkpt lat="44.076159" lon="-121.337624"><time>2026-10-06T15:28:41.000Z</time></trkpt>
    <trkpt lat="44.076055" lon="-121.337529"><time>2026-10-06T15:28:51.000Z</time></trkpt>
    <trkpt lat="44.075950" lon="-121.337468"><time>2026-10-06T15:29:01.000Z</time></trkpt>
    <trkpt lat="44.075826" lon="-121.337378"><time>2026-10-06T15:29:11.000Z</time></trkpt>
    <trkpt lat="44.075709" lon="-121.337284"><time>2026-10-06T15:29:21.000Z</time></trkpt>
    <trkpt lat="44.075621" lon="-121.337212"><time>2026-10-06T15:29:31.000Z</time></trkpt>
    <trkpt lat="44.075520" lon="-121.337126"><time>2026-10-06T15:29:41.000Z</time></trkpt>
    <trkpt lat="44.075417" lon="-121.337046"><time>2026-10-06T15:29:51.000Z</time></trkpt>
    <trkpt lat="44.075291" lon="-121.336970"><time>2026-10-06T15:30:01.000Z</time></trkpt>
    <trkpt lat="44.075205" lon="-121.336900"><time>2026-10-06T15:30:11.000Z</time></trkpt>
    <trkpt lat="44.075060" lon="-121.336812"><time>2026-10-06T15:30:21.000Z</time></trkpt>
    <trkpt lat="44.074950" lon="-121.336722"><time>2026-10-06T15:30:31.000Z</time></trkpt>
    <trkpt lat="44.074842" lon="-121.336649"><time>2026-10-06T15:30:41.000Z</time></trkpt>
    <trkpt lat="44.074743" lon="-121.336555"><time>2026-10-06T15:30:51.000Z</time></trkpt>
    <trkpt lat="44.074637" lon="-121.336487"><time>2026-10-06T15:31:01.000Z</time></trkpt>
    <trkpt lat="44.074519" lon="-121.336400"><time>2026-10-06T15:31:11.000Z</time></trkpt>
    <trkpt lat="44.074430" lon="-121.336322"><time>2026-10-06T15:31:21.000Z</time></trkpt>
    <trkpt lat="44.074305" lon="-121.336224"><time>2026-10-06T15:31:31.000Z</time></trkpt>
    <trkpt lat="44.074188" lon="-121.336148"><time>2026-10-06T15:31:41.000Z</time></trkpt>
    <trkpt lat="44.074086" lon="-121.336059"><time>2026-10-06T15:31:51.000Z</time></trkpt>
    <trkpt lat="44.073967" lon="-121.335981"><time>2026-10-06T15:32:01.000Z</time></trkpt>
    <trkpt lat="44.073871" lon="-121.335906"><time>2026-10-06T15:32:11.000Z</time></trkpt>
    <trkpt lat="44.073741" lon="-121.335823"><time>2026-10-06T15:32:21.000Z</time></trkpt>
    <trkpt lat="44.073634" lon="-121.335718"><time>2026-10-06T15:32:31.000Z</time></trkpt>
    <trkpt lat="44.073516" lon="-121.335642"><time>2026-10-06T15:32:41.000Z</time></trkpt>
    <trkpt lat="44.073417" lon="-121.335570"><time>2026-10-06T15:32:51.000Z</time></trkpt>
    <trkpt lat="44.073327" lon="-121.335486"><time>2026-10-06T15:33:01.000Z</time></trkpt>
    <trkpt lat="44.073205" lon="-121.335405"><time>2026-10-06T15:33:11.000Z</time></trkpt>
    <trkpt lat="44.073101" lon="-121.335326"><time>2026-10-06T15:33:21.000Z</time></trkpt>
    <trkpt lat="44.072975" lon="-121.335253"><time>2026-10-06T15:33:31.000Z</time></trkpt>
    <trkpt lat="44.072871" lon="-121.335169"><time>2026-10-06T15:33:41.000Z</time></trkpt>
    <trkpt lat="44.072757" lon="-121.335089"><time>2026-10-06T15:33:51.000Z</time></trkpt>
    <trkpt lat="44.072663" lon="-121.334998"><time>2026-10-06T15:34:01.000Z</time></trkpt>
    <trkpt lat="44.072539" lon="-121.334912"><time>2026-10-06T15:34:11.000Z</time></trkpt>
    <trkpt lat="44.072441" lon="-121.334833"><time>2026-10-06T15:34:21.000Z</time></trkpt>
    <trkpt lat="44.072342" lon="-121.334750"><time>2026-10-06T15:34:31.000Z</time></trkpt>
    <trkpt lat="44.072241" lon="-121.334680"><time>2026-10-06T15:34:41.000Z</time></trkpt>
    <trkpt lat="44.072129" lon="-121.334594"><time>2026-10-06T15:34:51.000Z</time></trkpt>
    <trkpt lat="44.072014" lon="-121.334521"><time>2026-10-06T15:35:01.000Z</time></trkpt>
    <trkpt lat="44.071903" lon="-121.334425"><time>2026-10-06T15:35:11.000Z</time></trkpt>
    <trkpt lat="44.071798" lon="-121.334350"><time>2026-10-06T15:35:21.000Z</time></trkpt>
    <trkpt lat="44.071673" lon="-121.334241"><time>2026-10-06T15:35:31.000Z</time></trkpt>
    <trkpt lat="44.071577" lon="-121.334172"><time>2026-10-06T15:35:41.000Z</time></trkpt>
    <trkpt lat="44.071443" lon="-121.334081"><time>2026-10-06T15:35:51.000Z</time></trkpt>
    <trkpt lat="44.071321" lon="-121.333991"><time>2026-10-06T15:36:01.000Z</time></trkpt>
    <trkpt lat="44.071205" lon="-121.333918"><time>2026-10-06T15:36:11.000Z</time></trkpt>
    <trkpt lat="44.071119" lon="-121.333831"><time>2026-10-06T15:36:21.000Z</time></trkpt>
    <trkpt lat="44.070992" lon="-121.333751"><time>2026-10-06T15:36:31.000Z</time></trkpt>
    <trkpt lat="44.070891" lon="-121.333655"><time>2026-10-06T15:36:41.000Z</time></trkpt>
    <trkpt lat="44.070793" lon="-121.333587"><time>2026-10-06T15:36:51.000Z</time></trkpt>
    <trkpt lat="44.070665" lon="-121.333497"><time>2026-10-06T15:37:01.000Z</time></trkpt>
    <trkpt lat="44.070571" lon="-121.333426"><time>2026-10-06T15:37:11.000Z</time></trkpt>
    <trkpt lat="44.070433" lon="-121.333330"><time>2026-10-06T15:37:21.000Z</time></trkpt>
    <trkpt lat="44.070354" lon="-121.333256"><time>2026-10-06T15:37:31.000Z</time></trkpt>
    <trkpt lat="44.070254" lon="-121.333168"><time>2026-10-06T15:37:41.000Z</time></trkpt>
    <trkpt lat="44.070132" lon="-121.333082"><time>2026-10-06T15:37:51.000Z</time></trkpt>
    <trkpt lat="44.070011" lon="-121.333007"><time>2026-10-06T15:38:01.000Z</time></trkpt>
    <trkpt lat="44.069929" lon="-121.332892"><time>2026-10-06T15:38:11.000Z</time></trkpt>
    <trkpt lat="44.069848" lon="-121.332744"><time>2026-10-06T15:38:21.000Z</time></trkpt>
    <trkpt lat="44.069749" lon="-121.332608"><time>2026-10-06T15:38:31.000Z</time></trkpt>
    <trkpt lat="44.069671" lon="-121.332493"><time>2026-10-06T15:38:41.000Z</time></trkpt>
    <trkpt lat="44.069603" lon="-121.332342"><time>2026-10-06T15:38:51.000Z</time></trkpt>
    <trkpt lat="44.069504" lon="-121.332194"><time>2026-10-06T15:39:01.000Z</time></trkpt>
    <trkpt lat="44.069416" lon="-121.332052"><time>2026-10-06T15:39:11.000Z</time></trkpt>
    <trkpt lat="44.069344" lon="-121.331933"><time>2026-10-06T15:39:21.000Z</time></trkpt>
    <trkpt lat="44.069257" lon="-121.331787"><time>2026-10-06T15:39:31.000Z</time></trkpt>
    <trkpt lat="44.069189" lon="-121.331662"><time>2026-10-06T15:39:41.000Z</time></trkpt>
    <trkpt lat="44.069082" lon="-121.331534"><time>2026-10-06T15:39:51.000Z</time></trkpt>
    <trkpt lat="44.069006" lon="-121.331389"><time>2026-10-06T15:40:01.000Z</time></trkpt>
    <trkpt lat="44.068925" lon="-121.331252"><time>2026-10-06T15:40:11.000Z</time></trkpt>
    <trkpt lat="44.068831" lon="-121.331110"><time>2026-10-06T15:40:21.000Z</time></trkpt>
    <trkpt lat="44.068757" lon="-121.330991"><time>2026-10-06T15:40:31.000Z</time></trkpt>
    <trkpt lat="44.068691" lon="-121.330873"><time>2026-10-06T15:40:41.000Z</time></trkpt>
    <trkpt lat="44.068583" lon="-121.330723"><time>2026-10-06T15:40:51.000Z</time></trkpt>
    <trkpt lat="44.068520" lon="-121.330589"><time>2026-10-06T15:41:01.000Z</time></trkpt>
    <trkpt lat="44.068439" lon="-121.330453"><time>2026-10-06T15:41:11.000Z</time></trkpt>
    <trkpt lat="44.068347" lon="-121.330316"><time>2026-10-06T15:41:21.000Z</time></trkpt>
    <trkpt lat="44.068271" lon="-121.330202"><time>2026-10-06T15:41:31.000Z</time></trkpt>
    <trkpt lat="44.068176" lon="-121.330034"><time>2026-10-06T15:41:41.000Z</time></trkpt>
    <trkpt lat="44.068102" lon="-121.329893"><time>2026-10-06T15:41:51.000Z</time></trkpt>
    <trkpt lat="44.068021" lon="-121.329765"><time>2026-10-06T15:42:01.000Z</time></trkpt>
    <trkpt lat="44.067932" lon="-121.329640"><time>2026-10-06T15:42:11.000Z</time></trkpt>
    <trkpt lat="44.067857" lon="-121.329524"><time>2026-10-06T15:42:21.000Z</time></trkpt>
    <trkpt lat="44.067791" lon="-121.329388"><time>2026-10-06T15:42:31.000Z</time></trkpt>
    <trkpt lat="44.067679" lon="-121.329254"><time>2026-10-06T15:42:41.000Z</time></trkpt>
    <trkpt lat="44.067619" lon="-121.329121"><time>2026-10-06T15:42:51.000Z</time></trkpt>
    <trkpt lat="44.067544" lon="-121.328997"><time>2026-10-06T15:43:01.000Z</time></trkpt>
    <trkpt lat="44.067440" lon="-121.328868"><time>2026-10-06T15:43:11.000Z</time></trkpt>
    <trkpt lat="44.067358" lon="-121.328736"><time>2026-10-06T15:43:21.000Z</time></trkpt>
    <trkpt lat="44.067293" lon="-121.328604"><time>2026-10-06T15:43:31.000Z</time></trkpt>
    <trkpt lat="44.067210" lon="-121.328456"><time>2026-10-06T15:43:41.000Z</time></trkpt>
    <trkpt lat="44.067126" lon="-121.328327"><time>2026-10-06T15:43:51.000Z</time></trkpt>
    <trkpt lat="44.067070" lon="-121.328204"><time>2026-10-06T15:44:01.000Z</time></trkpt>
    <trkpt lat="44.066971" lon="-121.328094"><time>2026-10-06T15:44:11.000Z</time></trkpt>
    <trkpt lat="44.066897" lon="-121.327938"><time>2026-10-06T15:44:21.000Z</time></trkpt>
    <trkpt lat="44.066795" lon="-121.327822"><time>2026-10-06T15:44:31.000Z</time></trkpt>
    <trkpt lat="44.066722" lon="-121.327659"><time>2026-10-06T15:44:41.000Z</time></trkpt>
    <trkpt lat="44.066635" lon="-121.327513"><time>2026-10-06T15:44:51.000Z</time></trkpt>
    <trkpt lat="44.066545" lon="-121.327371"><time>2026-10-06T15:45:01.000Z</time></trkpt>
    <trkpt lat="44.066467" lon="-121.327227"><time>2026-10-06T15:45:11.000Z</time></trkpt>
    <trkpt lat="44.066379" lon="-121.327108"><time>2026-10-06T15:45:21.000Z</time></trkpt>
    <trkpt lat="44.066281" lon="-121.326955"><time>2026-10-06T15:45:31.000Z</time></trkpt>
    <trkpt lat="44.066202" lon="-121.326836"><time>2026-10-06T15:45:41.000Z</time></trkpt>
    <trkpt lat="44.066142" lon="-121.326713"><time>2026-10-06T15:45:51.000Z</time></trkpt>
    <trkpt lat="44.066060" lon="-121.326593"><time>2026-10-06T15:46:01.000Z</time></trkpt>
    <trkpt lat="44.065965" lon="-121.326458"><time>2026-10-06T15:46:11.000Z</time></trkpt>
    <trkpt lat="44.065906" lon="-121.326325"><time>2026-10-06T15:46:21.000Z</time></trkpt>
    <trkpt lat="44.065817" lon="-121.326201"><time>2026-10-06T15:46:31.000Z</time></trkpt>
    <trkpt lat="44.065737" lon="-121.326077"><time>2026-10-06T15:46:41.000Z</time></trkpt>
    <trkpt lat="44.065658" lon="-121.325919"><time>2026-10-06T15:46:51.000Z</time></trkpt>
    <trkpt lat="44.065573" lon="-121.325804"><time>2026-10-06T15:47:01.000Z</time></trkpt>
    <trkpt lat="44.065486" lon="-121.325654"><time>2026-10-06T15:47:11.000Z</time></trkpt>
    <trkpt lat="44.065394" lon="-121.325531"><time>2026-10-06T15:47:21.000Z</time></trkpt>
    <trkpt lat="44.065323" lon="-121.325388"><time>2026-10-06T15:47:31.000Z</time></trkpt>
    <trkpt lat="44.065211" lon="-121.325242"><time>2026-10-06T15:47:41.000Z</time></trkpt>
    <trkpt lat="44.065128" lon="-121.325105"><time>2026-10-06T15:47:51.000Z</time></trkpt>
    <trkpt lat="44.065055" lon="-121.324971"><time>2026-10-06T15:48:01.000Z</time></trkpt>
    <trkpt lat="44.064971" lon="-121.324827"><time>2026-10-06T15:48:11.000Z</time></trkpt>
    <trkpt lat="44.064910" lon="-121.324706"><time>2026-10-06T15:48:21.000Z</time></trkpt>
    <trkpt lat="44.064822" lon="-121.324576"><time>2026-10-06T15:48:31.000Z</time></trkpt>
    <trkpt lat="44.064746" lon="-121.324463"><time>2026-10-06T15:48:41.000Z</time></trkpt>
    <trkpt lat="44.064651" lon="-121.324315"><time>2026-10-06T15:48:51.000Z</time></trkpt>
    <trkpt lat="44.064582" lon="-121.324193"><time>2026-10-06T15:49:01.000Z</time></trkpt>
    <trkpt lat="44.064493" lon="-121.324064"><time>2026-10-06T15:49:11.000Z</time></trkpt>
    <trkpt lat="44.064414" lon="-121.323928"><time>2026-10-06T15:49:21.000Z</time></trkpt>
    <trkpt lat="44.064320" lon="-121.323770"><time>2026-10-06T15:49:31.000Z</time></trkpt>
    <trkpt lat="44.064240" lon="-121.323660"><time>2026-10-06T15:49:41.000Z</time></trkpt>
    <trkpt lat="44.064167" lon="-121.323537"><time>2026-10-06T15:49:51.000Z</time></trkpt>
    <trkpt lat="44.064093" lon="-121.323394"><time>2026-10-06T15:50:01.000Z</time></trkpt>
    <trkpt lat="44.064032" lon="-121.323287"><time>2026-10-06T15:50:11.000Z</time></trkpt>
    <trkpt lat="44.063939" lon="-121.323148"><time>2026-10-06T15:50:21.000Z</time></trkpt>
    <trkpt lat="44.063866" lon="-121.323012"><time>2026-10-06T15:50:31.000Z</time></trkpt>
    <trkpt lat="44.063769" lon="-121.322894"><time>2026-10-06T15:50:41.000Z</time></trkpt>
    <trkpt lat="44.063692" lon="-121.322758"><time>2026-10-06T15:50:51.000Z</time></trkpt>
    <trkpt lat="44.063618" lon="-121.322632"><time>2026-10-06T15:51:01.000Z</time></trkpt>
    <trkpt lat="44.063539" lon="-121.322490"><time>2026-10-06T15:51:11.000Z</time></trkpt>
    <trkpt lat="44.063452" lon="-121.322363"><time>2026-10-06T15:51:21.000Z</time></trkpt>
    <trkpt lat="44.063371" lon="-121.322228"><time>2026-10-06T15:51:31.000Z</time></trkpt>
    <trkpt lat="44.063308" lon="-121.322114"><time>2026-10-06T15:51:41.000Z</time></trkpt>
    <trkpt lat="44.063210" lon="-121.321947"><time>2026-10-06T15:51:51.000Z</time></trkpt>
    <trkpt lat="44.063124" lon="-121.321834"><time>2026-10-06T15:52:01.000Z</time></trkpt>
    <trkpt lat="44.063050" lon="-121.321679"><time>2026-10-06T15:52:11.000Z</time></trkpt>
    <trkpt lat="44.062973" lon="-121.321568"><time>2026-10-06T15:52:21.000Z</time></trkpt>
    <trkpt lat="44.062890" lon="-121.321424"><time>2026-10-06T15:52:31.000Z</time></trkpt>
    <trkpt lat="44.062804" lon="-121.321297"><time>2026-10-06T15:52:41.000Z</time></trkpt>
    <trkpt lat="44.062716" lon="-121.321181"><time>2026-10-06T15:52:51.000Z</time></trkpt>
    <trkpt lat="44.062655" lon="-121.321034"><time>2026-10-06T15:53:01.000Z</time></trkpt>
    <trkpt lat="44.062556" lon="-121.320922"><time>2026-10-06T15:53:11.000Z</time></trkpt>
    <trkpt lat="44.062486" lon="-121.320791"><time>2026-10-06T15:53:21.000Z</time></trkpt>
    <trkpt lat="44.062417" lon="-121.320647"><time>2026-10-06T15:53:31.000Z</time></trkpt>
    <trkpt lat="44.062331" lon="-121.320518"><time>2026-10-06T15:53:41.000Z</time></trkpt>
    <trkpt lat="44.062239" lon="-121.320386"><time>2026-10-06T15:53:51.000Z</time></trkpt>
    <trkpt lat="44.062162" lon="-121.320274"><time>2026-10-06T15:54:01.000Z</time></trkpt>
    <trkpt lat="44.062092" lon="-121.320163"><time>2026-10-06T15:54:11.000Z</time></trkpt>
    <trkpt lat="44.062006" lon="-121.320006"><time>2026-10-06T15:54:21.000Z</time></trkpt>
    <trkpt lat="44.061915" lon="-121.319869"><time>2026-10-06T15:54:31.000Z</time></trkpt>
    <trkpt lat="44.061810" lon="-121.319779"><time>2026-10-06T15:54:41.000Z</time></trkpt>
    <trkpt lat="44.061727" lon="-121.319674"><time>2026-10-06T15:54:51.000Z</time></trkpt>
    <trkpt lat="44.061625" lon="-121.319526"><time>2026-10-06T15:55:01.000Z</time></trkpt>
    <trkpt lat="44.061524" lon="-121.319428"><time>2026-10-06T15:55:11.000Z</time></trkpt>
    <trkpt lat="44.061444" lon="-121.319298"><time>2026-10-06T15:55:21.000Z</time></trkpt>
    <trkpt lat="44.061346" lon="-121.319184"><time>2026-10-06T15:55:31.000Z</time></trkpt>
    <trkpt lat="44.061235" lon="-121.319054"><time>2026-10-06T15:55:41.000Z</time></trkpt>
    <trkpt lat="44.061144" lon="-121.318952"><time>2026-10-06T15:55:51.000Z</time></trkpt>
    <trkpt lat="44.061042" lon="-121.318842"><time>2026-10-06T15:56:01.000Z</time></trkpt>
    <trkpt lat="44.060955" lon="-121.318733"><time>2026-10-06T15:56:11.000Z</time></trkpt>
    <trkpt lat="44.060890" lon="-121.318598"><time>2026-10-06T15:56:21.000Z</time></trkpt>
    <trkpt lat="44.060786" lon="-121.318490"><time>2026-10-06T15:56:31.000Z</time></trkpt>
    <trkpt lat="44.060700" lon="-121.318383"><time>2026-10-06T15:56:41.000Z</time></trkpt>
    <trkpt lat="44.060606" lon="-121.318253"><time>2026-10-06T15:56:51.000Z</time></trkpt>
    <trkpt lat="44.060505" lon="-121.318149"><time>2026-10-06T15:57:01.000Z</time></trkpt>
    <trkpt lat="44.060428" lon="-121.318046"><time>2026-10-06T15:57:11.000Z</time></trkpt>
    <trkpt lat="44.060317" lon="-121.317920"><time>2026-10-06T15:57:21.000Z</time></trkpt>
    <trkpt lat="44.060245" lon="-121.317806"><time>2026-10-06T15:57:31.000Z</time></trkpt>
    <trkpt lat="44.060146" lon="-121.317683"><time>2026-10-06T15:57:41.000Z</time></trkpt>
    <trkpt lat="44.060041" lon="-121.317585"><time>2026-10-06T15:57:51.000Z</time></trkpt>
    <trkpt lat="44.059962" lon="-121.317473"><time>2026-10-06T15:58:01.000Z</time></trkpt>
    <trkpt lat="44.059855" lon="-121.317369"><time>2026-10-06T15:58:11.000Z</time></trkpt>
    <trkpt lat="44.059787" lon="-121.317243"><time>2026-10-06T15:58:21.000Z</time></trkpt>
    <trkpt lat="44.059677" lon="-121.317133"><time>2026-10-06T15:58:31.000Z</time></trkpt>
    <trkpt lat="44.059593" lon="-121.317019"><time>2026-10-06T15:58:41.000Z</time></trkpt>
    <trkpt lat="44.059501" lon="-121.316905"><time>2026-10-06T15:58:51.000Z</time></trkpt>
    <trkpt lat="44.059408" lon="-121.316769"><time>2026-10-06T15:59:01.000Z</time></trkpt>
    <trkpt lat="44.059301" lon="-121.316667"><time>2026-10-06T15:59:11.000Z</time></trkpt>
    <trkpt lat="44.059201" lon="-121.316546"><time>2026-10-06T15:59:21.000Z</time></trkpt>
    <trkpt lat="44.059121" lon="-121.316433"><time>2026-10-06T15:59:31.000Z</time></trkpt>
    <trkpt lat="44.059023" lon="-121.316330"><time>2026-10-06T15:59:41.000Z</time></trkpt>
    <trkpt lat="44.058922" lon="-121.316220"><time>2026-10-06T15:59:51.000Z</time></trkpt>
    <trkpt lat="44.058838" lon="-121.316087"><time>2026-10-06T16:00:01.000Z</time></trkpt>
    <trkpt lat="44.058720" lon="-121.315949"><time>2026-10-06T16:00:11.000Z</time></trkpt>
    <trkpt lat="44.058621" lon="-121.315828"><time>2026-10-06T16:00:21.000Z</time></trkpt>
    <trkpt lat="44.058564" lon="-121.315742"><time>2026-10-06T16:00:31.000Z</time></trkpt>
    <trkpt lat="44.058448" lon="-121.315617"><time>2026-10-06T16:00:41.000Z</time></trkpt>
    <trkpt lat="44.058357" lon="-121.315510"><time>2026-10-06T16:00:51.000Z</time></trkpt>
    <trkpt lat="44.058262" lon="-121.315398"><time>2026-10-06T16:01:01.000Z</time></trkpt>
    <trkpt lat="44.058166" lon="-121.315287"><time>2026-10-06T16:01:11.000Z</time></trkpt>
    <trkpt lat="44.058081" lon="-121.315189"><time>2026-10-06T16:01:21.000Z</time></trkpt>
    <trkpt lat="44.057991" lon="-121.315082"><time>2026-10-06T16:01:31.000Z</time></trkpt>
    <trkpt lat="44.057884" lon="-121.314981"><time>2026-10-06T16:01:41.000Z</time></trkpt>
    <trkpt lat="44.057785" lon="-121.314885"><time>2026-10-06T16:01:51.000Z</time></trkpt>
    <trkpt lat="44.057681" lon="-121.314784"><time>2026-10-06T16:02:01.000Z</time></trkpt>
    <trkpt lat="44.057592" lon="-121.314692"><time>2026-10-06T16:02:11.000Z</time></trkpt>
    <trkpt lat="44.057501" lon="-121.314574"><time>2026-10-06T16:02:21.000Z</time></trkpt>
    <trkpt lat="44.057380" lon="-121.314476"><time>2026-10-06T16:02:31.000Z</time></trkpt>
    <trkpt lat="44.057298" lon="-121.314376"><time>2026-10-06T16:02:41.000Z</time></trkpt>
    <trkpt lat="44.057174" lon="-121.314262"><time>2026-10-06T16:02:51.000Z</time></trkpt>
    <trkpt lat="44.057063" lon="-121.314163"><time>2026-10-06T16:03:01.000Z</time></trkpt>
    <trkpt lat="44.056967" lon="-121.314074"><time>2026-10-06T16:03:11.000Z</time></trkpt>
    <trkpt lat="44.056867" lon="-121.313952"><time>2026-10-06T16:03:21.000Z</time></trkpt>
    <trkpt lat="44.056773" lon="-121.313859"><time>2026-10-06T16:03:31.000Z</time></trkpt>
    <trkpt lat="44.056676" lon="-121.313761"><time>2026-10-06T16:03:41.000Z</time></trkpt>
    <trkpt lat="44.056580" lon="-121.313669"><time>2026-10-06T16:03:51.000Z</time></trkpt>
    <trkpt lat="44.056488" lon="-121.313552"><time>2026-10-06T16:04:01.000Z</time></trkpt>
    <trkpt lat="44.056389" lon="-121.313476"><time>2026-10-06T16:04:11.000Z</time></trkpt>
    <trkpt lat="44.056259" lon="-121.313334"><time>2026-10-06T16:04:21.000Z</time></trkpt>
    <trkpt lat="44.056153" lon="-121.313240"><time>2026-10-06T16:04:31.000Z</time></trkpt>
    <trkpt lat="44.056060" lon="-121.313136"><time>2026-10-06T16:04:41.000Z</time></trkpt>
    <trkpt lat="44.055955" lon="-121.313035"><time>2026-10-06T16:04:51.000Z</time></trkpt>
    <trkpt lat="44.055853" lon="-121.312915"><time>2026-10-06T16:05:01.000Z</time></trkpt>
    <trkpt lat="44.055746" lon="-121.312818"><time>2026-10-06T16:05:11.000Z</time></trkpt>
    <trkpt lat="44.055642" lon="-121.312729"><time>2026-10-06T16:05:21.000Z</time></trkpt>
    <trkpt lat="44.055549" lon="-121.312624"><time>2026-10-06T16:05:31.000Z</time></trkpt>
    <trkpt lat="44.055461" lon="-121.312521"><time>2026-10-06T16:05:41.000Z</time></trkpt>
    <trkpt lat="44.055363" lon="-121.312415"><time>2026-10-06T16:05:51.000Z</time></trkpt>
    <trkpt lat="44.055234" lon="-121.312322"><time>2026-10-06T16:06:01.000Z</time></trkpt>
    <trkpt lat="44.055149" lon="-121.312206"><time>2026-10-06T16:06:11.000Z</time></trkpt>
    <trkpt lat="44.055051" lon="-121.312123"><time>2026-10-06T16:06:21.000Z</time></trkpt>
    <trkpt lat="44.054944" lon="-121.312004"><time>2026-10-06T16:06:31.000Z</time></trkpt>
    <trkpt lat="44.054840" lon="-121.311888"><time>2026-10-06T16:06:41.000Z</time></trkpt>
    <trkpt lat="44.054740" lon="-121.311820"><time>2026-10-06T16:06:51.000Z</time></trkpt>
    <trkpt lat="44.054635" lon="-121.311701"><time>2026-10-06T16:07:01.000Z</time></trkpt>
    <trkpt lat="44.054543" lon="-121.311612"><time>2026-10-06T16:07:11.000Z</time></trkpt>
    <trkpt lat="44.054439" lon="-121.311485"><time>2026-10-06T16:07:21.000Z</time></trkpt>
    <trkpt lat="44.054318" lon="-121.311394"><time>2026-10-06T16:07:31.000Z</time></trkpt>
    <trkpt lat="44.054237" lon="-121.311288"><time>2026-10-06T16:07:41.000Z</time></trkpt>
    <trkpt lat="44.054132" lon="-121.311191"><time>2026-10-06T16:07:51.000Z</time></trkpt>
    <trkpt lat="44.054049" lon="-121.311094"><time>2026-10-06T16:08:01.000Z</time></trkpt>
    <trkpt lat="44.053940" lon="-121.311005"><time>2026-10-06T16:08:11.000Z</time></trkpt>
    <trkpt lat="44.053828" lon="-121.310907"><time>2026-10-06T16:08:21.000Z</time></trkpt>
    <trkpt lat="44.053737" lon="-121.310791"><time>2026-10-06T16:08:31.000Z</time></trkpt>
    <trkpt lat="44.053622" lon="-121.310695"><time>2026-10-06T16:08:41.000Z</time></trkpt>
    <trkpt lat="44.053536" lon="-121.310598"><time>2026-10-06T16:08:51.000Z</time></trkpt>
    <trkpt lat="44.053447" lon="-121.310507"><time>2026-10-06T16:09:01.000Z</time></trkpt>
    <trkpt lat="44.053353" lon="-121.310406"><time>2026-10-06T16:09:11.000Z</time></trkpt>
    <trkpt lat="44.053250" lon="-121.310296"><time>2026-10-06T16:09:21.000Z</time></trkpt>
    <trkpt lat="44.053131" lon="-121.310207"><time>2026-10-06T16:09:31.000Z</time></trkpt>
    <trkpt lat="44.053044" lon="-121.310092"><time>2026-10-06T16:09:41.000Z</time></trkpt>
    <trkpt lat="44.052961" lon="-121.309988"><time>2026-10-06T16:09:51.000Z</time></trkpt>
    <trkpt lat="44.052858" lon="-121.309886"><time>2026-10-06T16:10:01.000Z</time></trkpt>
    <trkpt lat="44.052725" lon="-121.309797"><time>2026-10-06T16:10:11.000Z</time></trkpt>
    <trkpt lat="44.052644" lon="-121.309677"><time>2026-10-06T16:10:21.000Z</time></trkpt>
    <trkpt lat="44.052545" lon="-121.309590"><time>2026-10-06T16:10:31.000Z</time></trkpt>
    <trkpt lat="44.052416" lon="-121.309473"><time>2026-10-06T16:10:41.000Z</time></trkpt>
    <trkpt lat="44.052333" lon="-121.309373"><time>2026-10-06T16:10:51.000Z</time></trkpt>
    <trkpt lat="44.052243" lon="-121.309267"><time>2026-10-06T16:11:01.000Z</time></trkpt>
    <trkpt lat="44.052130" lon="-121.309175"><time>2026-10-06T16:11:11.000Z</time></trkpt>
    <trkpt lat="44.052018" lon="-121.309056"><time>2026-10-06T16:11:21.000Z</time></trkpt>
    <trkpt lat="44.051931" lon="-121.308965"><time>2026-10-06T16:11:31.000Z</time></trkpt>
    <trkpt lat="44.051846" lon="-121.308863"><time>2026-10-06T16:11:41.000Z</time></trkpt>
    <trkpt lat="44.051735" lon="-121.308760"><time>2026-10-06T16:11:51.000Z</time></trkpt>
    <trkpt lat="44.051617" lon="-121.308645"><time>2026-10-06T16:12:01.000Z</time></trkpt>
    <trkpt lat="44.051513" lon="-121.308547"><time>2026-10-06T16:12:11.000Z</time></trkpt>
    <trkpt lat="44.051409" lon="-121.308436"><time>2026-10-06T16:12:21.000Z</time></trkpt>
    <trkpt lat="44.051296" lon="-121.308332"><time>2026-10-06T16:12:31.000Z</time></trkpt>
    <trkpt lat="44.051197" lon="-121.308216"><time>2026-10-06T16:12:41.000Z</time></trkpt>
    <trkpt lat="44.051099" lon="-121.308125"><time>2026-10-06T16:12:51.000Z</time></trkpt>
    <trkpt lat="44.050988" lon="-121.308031"><time>2026-10-06T16:13:01.000Z</time></trkpt>
    <trkpt lat="44.050885" lon="-121.307915"><time>2026-10-06T16:13:11.000Z</time></trkpt>
    <trkpt lat="44.050780" lon="-121.307802"><time>2026-10-06T16:13:21.000Z</time></trkpt>
    <trkpt lat="44.050680" lon="-121.307716"><time>2026-10-06T16:13:31.000Z</time></trkpt>
    <trkpt lat="44.050590" lon="-121.307595"><time>2026-10-06T16:13:41.000Z</time></trkpt>
    <trkpt lat="44.050477" lon="-121.307525"><time>2026-10-06T16:13:51.000Z</time></trkpt>
    <trkpt lat="44.050379" lon="-121.307422"><time>2026-10-06T16:14:01.000Z</time></trkpt>
    <trkpt lat="44.050289" lon="-121.307325"><time>2026-10-06T16:14:11.000Z</time></trkpt>
    <trkpt lat="44.050181" lon="-121.307200"><time>2026-10-06T16:14:21.000Z</time></trkpt>
    <trkpt lat="44.050093" lon="-121.307102"><time>2026-10-06T16:14:31.000Z</time></trkpt>
    <trkpt lat="44.050004" lon="-121.307009"><time>2026-10-06T16:14:41.000Z</time></trkpt>
    <trkpt lat="44.049901" lon="-121.306921"><time>2026-10-06T16:14:51.000Z</time></trkpt>
    <trkpt lat="44.049787" lon="-121.306803"><time>2026-10-06T16:15:01.000Z</time></trkpt>
    <trkpt lat="44.049697" lon="-121.306715"><time>2026-10-06T16:15:11.000Z</time></trkpt>
    <trkpt lat="44.049602" lon="-121.306617"><time>2026-10-06T16:15:21.000Z</time></trkpt>
    <trkpt lat="44.049487" lon="-121.306499"><time>2026-10-06T16:15:31.000Z</time></trkpt>
    <trkpt lat="44.049386" lon="-121.306380"><time>2026-10-06T16:15:41.000Z</time></trkpt>
    <trkpt lat="44.049290" lon="-121.306302"><time>2026-10-06T16:15:51.000Z</time></trkpt>
    <trkpt lat="44.049179" lon="-121.306214"><time>2026-10-06T16:16:01.000Z</time></trkpt>
    <trkpt lat="44.049086" lon="-121.306080"><time>2026-10-06T16:16:11.000Z</time></trkpt>
    <trkpt lat="44.048978" lon="-121.305983"><time>2026-10-06T16:16:21.000Z</time></trkpt>
    <trkpt lat="44.048873" lon="-121.305877"><time>2026-10-06T16:16:31.000Z</time></trkpt>
    <trkpt lat="44.048767" lon="-121.305764"><time>2026-10-06T16:16:41.000Z</time></trkpt>
    <trkpt lat="44.048667" lon="-121.305690"><time>2026-10-06T16:16:51.000Z</time></trkpt>
    <trkpt lat="44.048579" lon="-121.305570"><time>2026-10-06T16:17:01.000Z</time></trkpt>
    <trkpt lat="44.048478" lon="-121.305480"><time>2026-10-06T16:17:11.000Z</time></trkpt>
    <trkpt lat="44.048354" lon="-121.305363"><time>2026-10-06T16:17:21.000Z</time></trkpt>
    <trkpt lat="44.048275" lon="-121.305282"><time>2026-10-06T16:17:31.000Z</time></trkpt>
    <trkpt lat="44.048180" lon="-121.305158"><time>2026-10-06T16:17:41.000Z</time></trkpt>
    <trkpt lat="44.048077" lon="-121.305085"><time>2026-10-06T16:17:51.000Z</time></trkpt>
    <trkpt lat="44.047975" lon="-121.304982"><time>2026-10-06T16:18:01.000Z</time></trkpt>
    <trkpt lat="44.047885" lon="-121.304876"><time>2026-10-06T16:18:11.000Z</time></trkpt>
    <trkpt lat="44.047765" lon="-121.304782"><time>2026-10-06T16:18:21.000Z</time></trkpt>
    <trkpt lat="44.047683" lon="-121.304668"><time>2026-10-06T16:18:31.000Z</time></trkpt>
    <trkpt lat="44.047570" lon="-121.304578"><time>2026-10-06T16:18:41.000Z</time></trkpt>
    <trkpt lat="44.047493" lon="-121.304491"><time>2026-10-06T16:18:51.000Z</time></trkpt>
    <trkpt lat="44.047398" lon="-121.304372"><time>2026-10-06T16:19:01.000Z</time></trkpt>
    <trkpt lat="44.047276" lon="-121.304272"><time>2026-10-06T16:19:11.000Z</time></trkpt>
    <trkpt lat="44.047169" lon="-121.304195"><time>2026-10-06T16:19:21.000Z</time></trkpt>
    <trkpt lat="44.047057" lon="-121.304082"><time>2026-10-06T16:19:31.000Z</time></trkpt>
    <trkpt lat="44.046974" lon="-121.303987"><time>2026-10-06T16:19:41.000Z</time></trkpt>
    <trkpt lat="44.046873" lon="-121.303883"><time>2026-10-06T16:19:51.000Z</time></trkpt>
    <trkpt lat="44.046782" lon="-121.303770"><time>2026-10-06T16:20:01.000Z</time></trkpt>
    <trkpt lat="44.046669" lon="-121.303674"><time>2026-10-06T16:20:11.000Z</time></trkpt>
    <trkpt lat="44.046578" lon="-121.303567"><time>2026-10-06T16:20:21.000Z</time></trkpt>
    <trkpt lat="44.046465" lon="-121.303479"><time>2026-10-06T16:20:31.000Z</time></trkpt>
    <trkpt lat="44.046358" lon="-121.303356"><time>2026-10-06T16:20:41.000Z</time></trkpt>
    <trkpt lat="44.046259" lon="-121.303255"><time>2026-10-06T16:20:51.000Z</time></trkpt>
    <trkpt lat="44.046154" lon="-121.303161"><time>2026-10-06T16:21:01.000Z</time></trkpt>
    <trkpt lat="44.046047" lon="-121.303057"><time>2026-10-06T16:21:11.000Z</time></trkpt>
    <trkpt lat="44.045941" lon="-121.302942"><time>2026-10-06T16:21:21.000Z</time></trkpt>
    <trkpt lat="44.045862" lon="-121.302854"><time>2026-10-06T16:21:31.000Z</time></trkpt>
    <trkpt lat="44.045760" lon="-121.302733"><time>2026-10-06T16:21:41.000Z</time></trkpt>
    <trkpt lat="44.045649" lon="-121.302658"><time>2026-10-06T16:21:51.000Z</time></trkpt>
    <trkpt lat="44.045541" lon="-121.302546"><time>2026-10-06T16:22:01.000Z</time></trkpt>
    <trkpt lat="44.045435" lon="-121.302451"><time>2026-10-06T16:22:11.000Z</time></trkpt>
    <trkpt lat="44.045341" lon="-121.302340"><time>2026-10-06T16:22:21.000Z</time></trkpt>
    <trkpt lat="44.045239" lon="-121.302243"><time>2026-10-06T16:22:31.000Z</time></trkpt>
    <trkpt lat="44.045161" lon="-121.302160"><time>2026-10-06T16:22:41.000Z</time></trkpt>
    <trkpt lat="44.045036" lon="-121.302055"><time>2026-10-06T16:22:51.000Z</time></trkpt>
    <trkpt lat="44.044959" lon="-121.301952"><time>2026-10-06T16:23:01.000Z</time></trkpt>
    <trkpt lat="44.044850" lon="-121.301865"><time>2026-10-06T16:23:11.000Z</time></trkpt>
    <trkpt lat="44.044761" lon="-121.301764"><time>2026-10-06T16:23:21.000Z</time></trkpt>
    <trkpt lat="44.044675" lon="-121.301668"><time>2026-10-06T16:23:31.000Z</time></trkpt>
    <trkpt lat="44.044551" lon="-121.301549"><time>2026-10-06T16:23:41.000Z</time></trkpt>
    <trkpt lat="44.044449" lon="-121.301474"><time>2026-10-06T16:23:51.000Z</time></trkpt>
    <trkpt lat="44.044368" lon="-121.301364"><time>2026-10-06T16:24:01.000Z</time></trkpt>
    <trkpt lat="44.044278" lon="-121.301271"><time>2026-10-06T16:24:11.000Z</time></trkpt>
    <trkpt lat="44.044177" lon="-121.301166"><time>2026-10-06T16:24:21.000Z</time></trkpt>
    <trkpt lat="44.044074" lon="-121.301076"><time>2026-10-06T16:24:31.000Z</time></trkpt>
    <trkpt lat="44.043959" lon="-121.300943"><time>2026-10-06T16:24:41.000Z</time></trkpt>
    <trkpt lat="44.043852" lon="-121.300855"><time>2026-10-06T16:24:51.000Z</time></trkpt>
    <trkpt lat="44.043735" lon="-121.300746"><time>2026-10-06T16:25:01.000Z</time></trkpt>
    <trkpt lat="44.043634" lon="-121.300640"><time>2026-10-06T16:25:11.000Z</time></trkpt>
    <trkpt lat="44.043549" lon="-121.300550"><time>2026-10-06T16:25:21.000Z</time></trkpt>
    <trkpt lat="44.043441" lon="-121.300453"><time>2026-10-06T16:25:31.000Z</time></trkpt>
    <trkpt lat="44.043331" lon="-121.300345"><time>2026-10-06T16:25:41.000Z</time></trkpt>
    <trkpt lat="44.043250" lon="-121.300243"><time>2026-10-06T16:25:51.000Z</time></trkpt>
    <trkpt lat="44.043136" lon="-121.300143"><time>2026-10-06T16:26:01.000Z</time></trkpt>
    <trkpt lat="44.043034" lon="-121.300042"><time>2026-10-06T16:26:11.000Z</time></trkpt>
    <trkpt lat="44.042932" lon="-121.299954"><time>2026-10-06T16:26:21.000Z</time></trkpt>
    <trkpt lat="44.042857" lon="-121.299838"><time>2026-10-06T16:26:31.000Z</time></trkpt>
    <trkpt lat="44.042737" lon="-121.299734"><time>2026-10-06T16:26:41.000Z</time></trkpt>
    <trkpt lat="44.042650" lon="-121.299627"><time>2026-10-06T16:26:51.000Z</time></trkpt>
    <trkpt lat="44.042532" lon="-121.299542"><time>2026-10-06T16:27:01.000Z</time></trkpt>
    <trkpt lat="44.042456" lon="-121.299440"><time>2026-10-06T16:27:11.000Z</time></trkpt>
    <trkpt lat="44.042330" lon="-121.299329"><time>2026-10-06T16:27:21.000Z</time></trkpt>
    <trkpt lat="44.042249" lon="-121.299250"><time>2026-10-06T16:27:31.000Z</time></trkpt>
    <trkpt lat="44.042158" lon="-121.299156"><time>2026-10-06T16:27:41.000Z</time></trkpt>
    <trkpt lat="44.042058" lon="-121.299048"><time>2026-10-06T16:27:51.000Z</time></trkpt>
    <trkpt lat="44.041941" lon="-121.298944"><time>2026-10-06T16:28:01.000Z</time></trkpt>
    <trkpt lat="44.041827" lon="-121.298844"><time>2026-10-06T16:28:11.000Z</time></trkpt>
    <trkpt lat="44.041736" lon="-121.298750"><time>2026-10-06T16:28:21.000Z</time></trkpt>
    <trkpt lat="44.041620" lon="-121.298642"><time>2026-10-06T16:28:31.000Z</time></trkpt>
    <trkpt lat="44.041510" lon="-121.298511"><time>2026-10-06T16:28:41.000Z</time></trkpt>
    <trkpt lat="44.041408" lon="-121.298420"><time>2026-10-06T16:28:51.000Z</time></trkpt>
    <trkpt lat="44.041318" lon="-121.298307"><time>2026-10-06T16:29:01.000Z</time></trkpt>
    <trkpt lat="44.041202" lon="-121.298217"><time>2026-10-06T16:29:11.000Z</time></trkpt>
    <trkpt lat="44.041124" lon="-121.298113"><time>2026-10-06T16:29:21.000Z</time></trkpt>
    <trkpt lat="44.041027" lon="-121.298031"><time>2026-10-06T16:29:31.000Z</time></trkpt>
    <trkpt lat="44.040930" lon="-121.297934"><time>2026-10-06T16:29:41.000Z</time></trkpt>
    <trkpt lat="44.040814" lon="-121.297818"><time>2026-10-06T16:29:51.000Z</time></trkpt>
    <trkpt lat="44.040705" lon="-121.297705"><time>2026-10-06T16:30:01.000Z</time></trkpt>
    <trkpt lat="44.040621" lon="-121.297602"><time>2026-10-06T16:30:11.000Z</time></trkpt>
    <trkpt lat="44.040499" lon="-121.297514"><time>2026-10-06T16:30:21.000Z</time></trkpt>
    <trkpt lat="44.040416" lon="-121.297389"><time>2026-10-06T16:30:31.000Z</time></trkpt>
    <trkpt lat="44.040295" lon="-121.297282"><time>2026-10-06T16:30:41.000Z</time></trkpt>
    <trkpt lat="44.040188" lon="-121.297198"><time>2026-10-06T16:30:51.000Z</time></trkpt>
    <trkpt lat="44.040102" lon="-121.297087"><time>2026-10-06T16:31:01.000Z</time></trkpt>
  </trkseg></trk>
</gpx>
